<?xml version="1.0" encoding="utf-8"?><kml xmlns:gx="http://www.google.com/kml/ext/2.2" xmlns:kml="http://www.opengis.net/kml/2.2" xmlns:atom="http://www.w3.org/2005/Atom" xmlns="http://www.opengis.net/kml/2.2"><Document><Style id="point1"><IconStyle><Icon><href>kml_symbol_dot_0_t.png</href></Icon></IconStyle></Style><Style id="point2"><IconStyle><Icon><href>kml_symbol_dot_0.png</href></Icon></IconStyle></Style><Style id="CS_92"><LineStyle><color>bf00CC00</color><width>1</width></LineStyle><PolyStyle><color>bf00CC00</color><fill>0</fill><outline>1</outline></PolyStyle></Style><Style id="LS_6"><LineStyle><color>bfFF00FF</color><width>1</width></LineStyle><PolyStyle><color>bfFF00FF</color><fill>0</fill><outline>1</outline></PolyStyle></Style><Style id="Mixed_30"><LineStyle><color>bf007FFF</color><width>1</width></LineStyle><PolyStyle><color>bf007FFF</color><fill>0</fill><outline>1</outline></PolyStyle></Style><Style id="Service_170"><LineStyle><color>bfFF0000</color><width>1</width></LineStyle><PolyStyle><color>bfFF0000</color><fill>0</fill><outline>1</outline></PolyStyle></Style><Style id="0_7"><LineStyle><color>bfFFFFFF</color><width>1</width></LineStyle><PolyStyle><color>bfFFFFFF</color><fill>0</fill><outline>1</outline></PolyStyle></Style><Style id="kg Fence_3"><LineStyle><color>bf00FF00</color><width>1</width></LineStyle><PolyStyle><color>bf00FF00</color><fill>0</fill><outline>1</outline></PolyStyle></Style><Style id="Service_170"><LineStyle><color>bfFF0000</color><width>1</width></LineStyle><PolyStyle><color>bfFF0000</color><fill>0</fill><outline>1</outline></PolyStyle></Style><Style id="Building_2"><LineStyle><color>bf00FFFF</color><width>1</width></LineStyle><PolyStyle><color>bf00FFFF</color><fill>0</fill><outline>1</outline></PolyStyle></Style><Style id="Road width_130"><IconStyle><Icon /></IconStyle><LabelStyle><color>bfFFFF00</color></LabelStyle></Style><Style id="Detail Land Use Code_7"><IconStyle><Icon /></IconStyle><LabelStyle><color>bfFFFFFF</color></LabelStyle></Style><ScreenOverlay><name>Cadomation</name><Icon><href>cadomation_logo.jpg</href></Icon><overlayXY x="0" y="1" xunits="fraction" yunits="fraction" /><screenXY x="0.01" y="0.99" xunits="fraction" yunits="fraction" /></ScreenOverlay><StyleMap id="default"><Pair><key>normal</key><styleUrl>#default0</styleUrl></Pair><Pair><key>highlight</key><styleUrl>#h1</styleUrl></Pair></StyleMap><Style id="default0"><LabelStyle><color>ffffffff</color></LabelStyle><LineStyle><color>ffff5555</color></LineStyle><PolyStyle><fill>0</fill></PolyStyle></Style><Style id="h1"><LabelStyle><color>ffffff00</color></LabelStyle><LineStyle><color>ffff5500</color></LineStyle><PolyStyle><fill>1</fill><color>ffff5500</color></PolyStyle></Style><Folder><name>Point Features</name></Folder><Folder><name>Label Features</name><Placemark><name>14m</name><styleUrl>#Road width_130</styleUrl><Point><coordinates>34.5590276339954,10.0812223080675,0</coordinates></Point></Placemark><Placemark><name>10m</name><styleUrl>#Road width_130</styleUrl><Point><coordinates>34.56093367987,10.0797178194143,0</coordinates></Point></Placemark><Placemark><name>10m</name><styleUrl>#Road width_130</styleUrl><Point><coordinates>34.5609671460516,10.0807548891942,0</coordinates></Point></Placemark><Placemark><name>10m</name><styleUrl>#Road width_130</styleUrl><Point><coordinates>34.5606217834337,10.0804061121006,0</coordinates></Point></Placemark><Placemark><name>15m</name><styleUrl>#Road width_130</styleUrl><Point><coordinates>34.5589626091893,10.080234280861,0</coordinates></Point></Placemark><Placemark><name>10m</name><styleUrl>#Road width_130</styleUrl><Point><coordinates>34.5603870825969,10.0795820782888,0</coordinates></Point></Placemark><Placemark><name>14m</name><styleUrl>#Road width_130</styleUrl><Point><coordinates>34.5593757357584,10.0794498397974,0</coordinates></Point></Placemark><Placemark><name>R-2</name><styleUrl>#Detail Land Use Code_7</styleUrl><Point><coordinates>34.5610647515528,10.0806019447514,0</coordinates></Point></Placemark><Placemark><name>R-2</name><styleUrl>#Detail Land Use Code_7</styleUrl><Point><coordinates>34.5610991918803,10.0798679410343,0</coordinates></Point></Placemark><Placemark><name>R-2</name><styleUrl>#Detail Land Use Code_7</styleUrl><Point><coordinates>34.5606158420425,10.079614884239,0</coordinates></Point></Placemark><Placemark><name>R-2</name><styleUrl>#Detail Land Use Code_7</styleUrl><Point><coordinates>34.5608428325432,10.081018440054,0</coordinates></Point></Placemark><Placemark><name>R-2</name><styleUrl>#Detail Land Use Code_7</styleUrl><Point><coordinates>34.5593806288878,10.080901933646,0</coordinates></Point></Placemark><Placemark><name>S-12</name><styleUrl>#Detail Land Use Code_7</styleUrl><Point><coordinates>34.5597993793914,10.0802083335044,0</coordinates></Point></Placemark></Folder><Folder><name>Line Features</name><Placemark><name /><description>CS</description><styleUrl>#CS_92</styleUrl><LineString><coordinates>34.558951392623,10.0802437652912,0 34.558937090275,10.0802406908531,0 </coordinates></LineString></Placemark><Placemark><name /><description>CS</description><styleUrl>#CS_92</styleUrl><LineString><coordinates>34.558951392623,10.0802437652912,0 34.5602914380247,10.081055908493,0 34.5606983284775,10.0812688068278,0 </coordinates></LineString></Placemark><Placemark><name /><description>CS</description><styleUrl>#CS_92</styleUrl><LineString><coordinates>34.5592848391736,10.079461100787,0 34.5589372644421,10.0802769282897,0 </coordinates></LineString></Placemark><Placemark><name /><description>CS</description><styleUrl>#CS_92</styleUrl><LineString><coordinates>34.5591144338428,10.0810891437959,0 34.5590144730763,10.0812767602688,0 </coordinates></LineString></Placemark><Placemark><name /><description>CS</description><styleUrl>#CS_92</styleUrl><LineString><coordinates>34.559366499847,10.0794607152727,0 34.5611509832105,10.0803944220831,0 </coordinates></LineString></Placemark><Placemark><name /><description>LS</description><styleUrl>#LS_6</styleUrl><LineString><coordinates>34.5594689009666,10.0812746146918,0 34.5589407314814,10.0809982564615,0 </coordinates></LineString></Placemark><Placemark><name /><description>LS</description><styleUrl>#LS_6</styleUrl><LineString><coordinates>34.5599119715597,10.0794581396209,0 34.5597919843264,10.0796833450993,0 </coordinates></LineString></Placemark><Placemark><name /><description>LS</description><styleUrl>#LS_6</styleUrl><LineString><coordinates>34.5604703706672,10.0794555019946,0 34.5602275538773,10.0799112515656,0 </coordinates></LineString></Placemark><Placemark><name /><description>LS</description><styleUrl>#LS_6</styleUrl><LineString><coordinates>34.5589347318323,10.0797499766774,0 34.5591427184666,10.0797946855977,0 </coordinates></LineString></Placemark><Placemark><name /><description>LS</description><styleUrl>#LS_6</styleUrl><LineString><coordinates>34.5607544129128,10.0801869228177,0 34.5601766970799,10.0812712715939,0 </coordinates></LineString></Placemark><Placemark><name /><description>LS</description><styleUrl>#LS_6</styleUrl><LineString><coordinates>34.5611532625786,10.080867979295,0 34.5605576103883,10.0805563148693,0 </coordinates></LineString></Placemark><Placemark><name /><description>LS</description><styleUrl>#LS_6</styleUrl><LineString><coordinates>34.5607115485352,10.080164494823,0 34.561081823736,10.0794695141671,0 34.5610908512755,10.0794525700161,0 </coordinates></LineString></Placemark><Placemark><name /><description>Mixed</description><styleUrl>#Mixed_30</styleUrl><LineString><coordinates>34.5611464488741,10.079452307242,0 34.5611434209097,10.0794507216831,0 34.5611221626785,10.0794906213626,0 34.5609759915579,10.0797649763799,0 34.5609604920398,10.0797940679084,0 34.560781706704,10.0801296361011,0 34.5607842311502,10.0801309568694,0 34.5611506378715,10.0803226730536,0 </coordinates></LineString></Placemark><Placemark><name /><description>Mixed</description><styleUrl>#Mixed_30</styleUrl><LineString><coordinates>34.5589420718132,10.0812771020529,0 34.5590323994859,10.0811075659067,0 34.5589410270905,10.0810597563216,0 </coordinates></LineString></Placemark><Placemark><name /><description>Mixed</description><styleUrl>#Mixed_30</styleUrl><LineString><coordinates>34.560553088043,10.0812694931877,0 34.5602998303118,10.0811369798957,0 34.5602284127234,10.0812710272686,0 </coordinates></LineString></Placemark><Placemark><name /><description>Mixed</description><styleUrl>#Mixed_30</styleUrl><LineString><coordinates>34.5601249823676,10.0812715159068,0 34.560207252006,10.0811170995092,0 34.560219150245,10.0810947662602,0 34.5602204323869,10.0810923597186,0 34.5590649297162,10.0803920603783,0 34.5589835104401,10.0803427153267,0 34.5589467504073,10.0804289980217,0 34.5589380930071,10.0804493187208,0 </coordinates></LineString></Placemark><Placemark><name /><description>Mixed</description><styleUrl>#Mixed_30</styleUrl><LineString><coordinates>34.558940435878,10.080936757389,0 34.5590472110323,10.0809926261917,0 34.5591399927775,10.0810411734523,0 34.5595674966981,10.0812648592613,0 34.5595850923913,10.0812740659947,0 </coordinates></LineString></Placemark><Placemark><name /><description>Mixed</description><styleUrl>#Mixed_30</styleUrl><LineString><coordinates>34.5611535092676,10.0809192295366,0 34.5605766504111,10.0806173988191,0 34.5603637257854,10.0810170507124,0 34.5605928830813,10.0811369532125,0 34.5607137523462,10.0812001960118,0 34.5608435688033,10.0812681204045,0 </coordinates></LineString></Placemark><Placemark><name /><description>Mixed</description><styleUrl>#Mixed_30</styleUrl><LineString><coordinates>34.5611513285554,10.0804661717811,0 34.5607649346171,10.0802639977959,0 34.5606192484893,10.0805374454048,0 34.5607757415354,10.0806193268327,0 34.5609317242785,10.0807009420577,0 34.5611530158904,10.0808167289583,0 </coordinates></LineString></Placemark><Placemark><name /><description>Mixed</description><styleUrl>#Mixed_30</styleUrl><LineString><coordinates>34.5589364358862,10.0801045366276,0 34.5590566218572,10.0798224358465,0 34.5589349543777,10.0797962821247,0 </coordinates></LineString></Placemark><Placemark><name /><description>Mixed</description><styleUrl>#Mixed_30</styleUrl><LineString><coordinates>34.5605220864119,10.0794552576649,0 34.5602977120633,10.0798763929465,0 34.5607010268589,10.0800874216485,0 34.5610391347564,10.0794528144385,0 </coordinates></LineString></Placemark><Placemark><name /><description>Mixed</description><styleUrl>#Mixed_30</styleUrl><LineString><coordinates>34.5599636873231,10.0794578953785,0 34.5599582913057,10.0794680232427,0 34.5598621425278,10.0796484865726,0 34.5602170323311,10.0798341783561,0 34.5604186549702,10.0794557463159,0 </coordinates></LineString></Placemark><Placemark><name /><description>Mixed</description><styleUrl>#Mixed_30</styleUrl><LineString><coordinates>34.5589345092863,10.0797036709039,0 34.5590927304475,10.0797376824102,0 34.5592104151249,10.0794614521202,0 </coordinates></LineString></Placemark><Placemark><name /><description>Mixed</description><styleUrl>#Mixed_30</styleUrl><LineString><coordinates>34.5595020574341,10.0794600752702,0 34.5595096019109,10.0794640228273,0 34.5595269336392,10.079473091772,0 34.5597814628974,10.0796062718582,0 34.5598602560923,10.0794583838537,0 </coordinates></LineString></Placemark><Placemark><name /><description>Service</description><styleUrl>#Service_170</styleUrl><LineString><coordinates>34.5593527082552,10.0812751633541,0 34.5591453503431,10.0811666659754,0 34.5590868751471,10.0812764184649,0 </coordinates></LineString></Placemark></Folder><Folder><name>Area Features</name><Placemark><name /><description>0</description><styleUrl>#0_7</styleUrl><Polygon><outerBoundaryIs><LinearRing><coordinates>34.5611464488741,10.079452307242,0 34.5589333514833,10.0794627599056,0 34.5589420718132,10.0812771020529,0 34.5611551815713,10.0812666474696,0 34.5611464488741,10.079452307242,0 </coordinates></LinearRing></outerBoundaryIs></Polygon></Placemark><Placemark><name /><description>kg Fence</description><styleUrl>#kg Fence_3</styleUrl><Polygon><outerBoundaryIs><LinearRing><coordinates>34.5602328623951,10.0799875953492,0 34.5601695963226,10.0801120322595,0 34.560374325384,10.0802374901389,0 34.560457894855,10.0801033440455,0 34.5602337131233,10.0799860440683,0 34.5602328623951,10.0799875953492,0 </coordinates></LinearRing></outerBoundaryIs></Polygon></Placemark><Placemark><name /><description>Service</description><styleUrl>#Service_170</styleUrl><Polygon><outerBoundaryIs><LinearRing><coordinates>34.559762165942,10.0797393127873,0 34.5593356601509,10.0795161475299,0 34.5592057555327,10.0798210609903,0 34.5591100927067,10.0800456004029,0 34.5590678321803,10.0801447948397,0 34.5590373386874,10.0802163683773,0 34.5591006570352,10.0802547421669,0 34.5602844553767,10.0809721912527,0 34.5603419925731,10.0808641959861,0 34.5605172695085,10.0805352085332,0 34.5606842547374,10.0802217833443,0 34.5606817302907,10.0802204625752,0 34.5601977355592,10.079967219284,0 34.559762165942,10.0797393127873,0 </coordinates></LinearRing></outerBoundaryIs></Polygon></Placemark><Placemark><name /><description>Building</description><styleUrl>#Building_2</styleUrl><Polygon><outerBoundaryIs><LinearRing><coordinates>34.5599432941962,10.0807400210036,0 34.5602434034914,10.0809307424476,0 34.5603015691976,10.0808488954825,0 34.5599941649147,10.0806599092248,0 34.5599432941962,10.0807400210036,0 </coordinates></LinearRing></outerBoundaryIs></Polygon></Placemark><Placemark><name /><description>Building</description><styleUrl>#Building_2</styleUrl><Polygon><outerBoundaryIs><LinearRing><coordinates>34.5600632856084,10.0806532447237,0 34.5603128190081,10.0808084120287,0 34.5603605178426,10.08073787825,0 34.5601089884874,10.0805825694136,0 34.5600632856084,10.0806532447237,0 </coordinates></LinearRing></outerBoundaryIs></Polygon></Placemark><Placemark><name /><description>Building</description><styleUrl>#Building_2</styleUrl><Polygon><outerBoundaryIs><LinearRing><coordinates>34.5600897156854,10.0799696463017,0 34.5601234093488,10.079984360208,0 34.5601412699516,10.079944611337,0 34.5601058155886,10.0799297357709,0 34.5600897156854,10.0799696463017,0 </coordinates></LinearRing></outerBoundaryIs></Polygon></Placemark><Placemark><name /><description>Service</description><styleUrl>#Service_170</styleUrl><Polygon><outerBoundaryIs><LinearRing><coordinates>34.559762165942,10.0797393127873,0 34.5593356601509,10.0795161475299,0 34.5592057555327,10.0798210609903,0 34.5591100927067,10.0800456004029,0 34.5590678321803,10.0801447948397,0 34.5590373386874,10.0802163683773,0 34.5591006570352,10.0802547421669,0 34.5602844553767,10.0809721912527,0 34.5603419925731,10.0808641959861,0 34.5605172695085,10.0805352085332,0 34.5606842547374,10.0802217833443,0 34.5606817302907,10.0802204625752,0 34.5601977355592,10.079967219284,0 34.559762165942,10.0797393127873,0 </coordinates></LinearRing></outerBoundaryIs></Polygon></Placemark></Folder><Folder><name>Hatch Fill Features</name></Folder></Document></kml>