<?xml version="1.0" encoding="utf-8"?><kml xmlns:gx="http://www.google.com/kml/ext/2.2" xmlns:kml="http://www.opengis.net/kml/2.2" xmlns:atom="http://www.w3.org/2005/Atom" xmlns="http://www.opengis.net/kml/2.2"><Document><Style id="point1"><IconStyle><Icon><href>kml_symbol_dot_0_t.png</href></Icon></IconStyle></Style><Style id="point2"><IconStyle><Icon><href>kml_symbol_dot_0.png</href></Icon></IconStyle></Style><Style id="Building_2"><LineStyle><color>bf00FFFF</color><width>1</width></LineStyle><PolyStyle><color>bf00FFFF</color><fill>0</fill><outline>1</outline></PolyStyle></Style><Style id="Fence_5"><LineStyle><color>bfFF0000</color><width>1</width></LineStyle><PolyStyle><color>bfFF0000</color><fill>0</fill><outline>1</outline></PolyStyle></Style><Style id="0_2"><LineStyle><color>bf00FFFF</color><width>1</width></LineStyle><PolyStyle><color>bf00FFFF</color><fill>0</fill><outline>1</outline></PolyStyle></Style><Style id="SAS_5"><LineStyle><color>bfFF0000</color><width>1</width></LineStyle><PolyStyle><color>bfFF0000</color><fill>0</fill><outline>1</outline></PolyStyle></Style><Style id="CS_92"><LineStyle><color>bf00CC00</color><width>1</width></LineStyle><PolyStyle><color>bf00CC00</color><fill>0</fill><outline>1</outline></PolyStyle></Style><Style id="LS_6"><LineStyle><color>bfFF00FF</color><width>1</width></LineStyle><PolyStyle><color>bfFF00FF</color><fill>0</fill><outline>1</outline></PolyStyle></Style><Style id="Commerce_10"><LineStyle><color>bf0000FF</color><width>1</width></LineStyle><PolyStyle><color>bf0000FF</color><fill>0</fill><outline>1</outline></PolyStyle></Style><Style id="Manufacturing_202"><LineStyle><color>bfCC0099</color><width>1</width></LineStyle><PolyStyle><color>bfCC0099</color><fill>0</fill><outline>1</outline></PolyStyle></Style><Style id="Recreational_90"><LineStyle><color>bf00FF00</color><width>1</width></LineStyle><PolyStyle><color>bf00FF00</color><fill>0</fill><outline>1</outline></PolyStyle></Style><Style id="Residence_50"><LineStyle><color>bf00FFFF</color><width>1</width></LineStyle><PolyStyle><color>bf00FFFF</color><fill>0</fill><outline>1</outline></PolyStyle></Style><Style id="Service_170"><LineStyle><color>bfFF0000</color><width>1</width></LineStyle><PolyStyle><color>bfFF0000</color><fill>0</fill><outline>1</outline></PolyStyle></Style><Style id="0_7"><LineStyle><color>bfFFFFFF</color><width>1</width></LineStyle><PolyStyle><color>bfFFFFFF</color><fill>0</fill><outline>1</outline></PolyStyle></Style><Style id="KG Boundary_3"><LineStyle><color>bf00FF00</color><width>1</width></LineStyle><PolyStyle><color>bf00FF00</color><fill>0</fill><outline>1</outline></PolyStyle></Style><Style id="Service_170"><LineStyle><color>bfFF0000</color><width>1</width></LineStyle><PolyStyle><color>bfFF0000</color><fill>0</fill><outline>1</outline></PolyStyle></Style><Style id="Residence_50"><LineStyle><color>bf00FFFF</color><width>1</width></LineStyle><PolyStyle><color>bf00FFFF</color><fill>0</fill><outline>1</outline></PolyStyle></Style><Style id="Road width_130"><IconStyle><Icon /></IconStyle><LabelStyle><color>bfFFFF00</color></LabelStyle></Style><Style id="Detail Land Use Code_7"><IconStyle><Icon /></IconStyle><LabelStyle><color>bfFFFFFF</color></LabelStyle></Style><ScreenOverlay><name>Cadomation</name><Icon><href>cadomation_logo.jpg</href></Icon><overlayXY x="0" y="1" xunits="fraction" yunits="fraction" /><screenXY x="0.01" y="0.99" xunits="fraction" yunits="fraction" /></ScreenOverlay><StyleMap id="default"><Pair><key>normal</key><styleUrl>#default0</styleUrl></Pair><Pair><key>highlight</key><styleUrl>#h1</styleUrl></Pair></StyleMap><Style id="default0"><LabelStyle><color>ffffffff</color></LabelStyle><LineStyle><color>ffff5555</color></LineStyle><PolyStyle><fill>0</fill></PolyStyle></Style><Style id="h1"><LabelStyle><color>ffffff00</color></LabelStyle><LineStyle><color>ffff5500</color></LineStyle><PolyStyle><fill>1</fill><color>ffff5500</color></PolyStyle></Style><Folder><name>Point Features</name></Folder><Folder><name>Label Features</name><Placemark><name>12m</name><styleUrl>#Road width_130</styleUrl><Point><coordinates>34.5450394038732,10.0783651723296,0</coordinates></Point></Placemark><Placemark><name>15m</name><styleUrl>#Road width_130</styleUrl><Point><coordinates>34.5430141190613,10.0777068029986,0</coordinates></Point></Placemark><Placemark><name>12m</name><styleUrl>#Road width_130</styleUrl><Point><coordinates>34.5441987007843,10.0790778078594,0</coordinates></Point></Placemark><Placemark><name>10m</name><styleUrl>#Road width_130</styleUrl><Point><coordinates>34.5438232582904,10.0768803147729,0</coordinates></Point></Placemark><Placemark><name>10m</name><styleUrl>#Road width_130</styleUrl><Point><coordinates>34.5433230266362,10.0770901866107,0</coordinates></Point></Placemark><Placemark><name>12m</name><styleUrl>#Road width_130</styleUrl><Point><coordinates>34.5434662379692,10.0781274690923,0</coordinates></Point></Placemark><Placemark><name>16m</name><styleUrl>#Road width_130</styleUrl><Point><coordinates>34.543245172485,10.0781558633751,0</coordinates></Point></Placemark><Placemark><name>10m</name><styleUrl>#Road width_130</styleUrl><Point><coordinates>34.5445617043988,10.0775223922648,0</coordinates></Point></Placemark><Placemark><name>12m</name><styleUrl>#Road width_130</styleUrl><Point><coordinates>34.543943796535,10.079281621005,0</coordinates></Point></Placemark><Placemark><name>12m</name><styleUrl>#Road width_130</styleUrl><Point><coordinates>34.5430837543107,10.0788891801211,0</coordinates></Point></Placemark><Placemark><name>CO-21</name><styleUrl>#Detail Land Use Code_7</styleUrl><Point><coordinates>34.5449915914939,10.0778012149941,0</coordinates></Point></Placemark><Placemark><name>M-12</name><styleUrl>#Detail Land Use Code_7</styleUrl><Point><coordinates>34.5445607603475,10.0769569329751,0</coordinates></Point></Placemark><Placemark><name>R-1</name><styleUrl>#Detail Land Use Code_7</styleUrl><Point><coordinates>34.5432987497,10.0767064912106,0</coordinates></Point></Placemark><Placemark><name>R-1</name><styleUrl>#Detail Land Use Code_7</styleUrl><Point><coordinates>34.543230302972,10.0773606935176,0</coordinates></Point></Placemark><Placemark><name>R-1</name><styleUrl>#Detail Land Use Code_7</styleUrl><Point><coordinates>34.5432885861341,10.0788413136673,0</coordinates></Point></Placemark></Folder><Folder><name>Line Features</name><Placemark><name /><description>Building</description><styleUrl>#Building_2</styleUrl><LineString><coordinates>34.5438377324892,10.0778728052993,0 34.5438850136641,10.0779301513105,0 34.5439912315472,10.0778385488449,0 34.5439427362294,10.0777833232509,0 34.5438382496851,10.0778734325918,0 </coordinates></LineString></Placemark><Placemark><name /><description>Building</description><styleUrl>#Building_2</styleUrl><LineString><coordinates>34.5439928495475,10.0779323233878,0 34.54404449321,10.0779780121542,0 34.5440921588496,10.0779171742505,0 34.5440402134108,10.077874299157,0 34.5439928495475,10.0779323233878,0 </coordinates></LineString></Placemark><Placemark><name /><description>Building</description><styleUrl>#Building_2</styleUrl><LineString><coordinates>34.5435426417786,10.0781165565998,0 34.5435819841384,10.0781776332472,0 34.5436320903277,10.0781371774447,0 34.5435952648871,10.0780798018263,0 34.5435426417786,10.0781165565998,0 </coordinates></LineString></Placemark><Placemark><name /><description>Fence</description><styleUrl>#Fence_5</styleUrl><LineString><coordinates>34.5448855400331,10.0784760217525,0 34.5440889759454,10.0776147215325,0 34.5439596188309,10.0777534174208,0 34.5435137164105,10.0781336837029,0 34.5436866342956,10.0785144901383,0 34.5440266283095,10.0791445443556,0 34.5442452227696,10.0789978472596,0 34.5446440901151,10.0787301697915,0 34.5449231888734,10.0785167301052,0 34.5448855400331,10.0784760217525,0 </coordinates></LineString></Placemark><Placemark><name /><description>Building</description><styleUrl>#Building_2</styleUrl><LineString><coordinates>34.5438505726424,10.0780466765876,0 34.5438036513141,10.0780002445114,0 34.5437295652097,10.0780840486766,0 34.5437757406694,10.078128885063,0 34.5438505726424,10.0780466765876,0 </coordinates></LineString></Placemark><Placemark><name /><description>Building</description><styleUrl>#Building_2</styleUrl><LineString><coordinates>34.5437830728964,10.0781899920887,0 34.543847558853,10.0782438489466,0 34.5440478290704,10.0779885898462,0 34.5439868340225,10.0779396402832,0 34.5437830728964,10.0781899920887,0 </coordinates></LineString></Placemark><Placemark><name /><description>Building</description><styleUrl>#Building_2</styleUrl><LineString><coordinates>34.5437053293862,10.0782505277429,0 34.5437374609549,10.0782103676554,0 34.5437685078479,10.0782370649035,0 34.5437329050164,10.078279090218,0 34.5437053293862,10.0782505277429,0 </coordinates></LineString></Placemark><Placemark><name /><description>Building</description><styleUrl>#Building_2</styleUrl><LineString><coordinates>34.5436537151058,10.078262524776,0 34.5436205862327,10.0782798053262,0 34.5436019606848,10.0782447376284,0 34.5436368804857,10.0782280103986,0 34.5436537151058,10.078262524776,0 </coordinates></LineString></Placemark><Placemark><name /><description>Building</description><styleUrl>#Building_2</styleUrl><LineString><coordinates>34.5442476876519,10.0779452445361,0 34.5441403962873,10.077845793532,0 34.5441977293043,10.0777885264503,0 34.5443025954821,10.0778869280441,0 34.5442476876519,10.0779452445361,0 </coordinates></LineString></Placemark><Placemark><name /><description>0</description><styleUrl>#0_2</styleUrl><LineString><coordinates>34.5446067996488,10.0786540522067,0 34.5445786223955,10.0786814392139,0 34.5445491921893,10.0786514983403,0 34.5445771222308,10.0786225965801,0 34.5446067996488,10.0786540522067,0 </coordinates></LineString></Placemark><Placemark><name /><description>Building</description><styleUrl>#Building_2</styleUrl><LineString><coordinates>34.5436761565245,10.0783709531157,0 34.5436480328591,10.078337014201,0 34.5436850549089,10.0783054126593,0 34.5437093294536,10.0783407578745,0 34.5436761565245,10.0783709531157,0 </coordinates></LineString></Placemark><Placemark><name /><description>SAS</description><styleUrl>#SAS_5</styleUrl><LineString><coordinates>34.5450241701545,10.0766752193904,0 34.5450251630497,10.0766778876945,0 34.5451976550832,10.0771360993083,0 34.5452473161586,10.0772344502156,0 </coordinates></LineString></Placemark><Placemark><name /><description>CS</description><styleUrl>#CS_92</styleUrl><LineString><coordinates>34.5442428144739,10.0766788723763,0 34.5441002904236,10.0767583729243,0 34.5433455073135,10.0779937003183,0 34.543267266073,10.078143751442,0 34.5430002454271,10.0786558426858,0 </coordinates></LineString></Placemark><Placemark><name /><description>CS</description><styleUrl>#CS_92</styleUrl><LineString><coordinates>34.5429957475249,10.0777101322939,0 34.5433496898173,10.0779868544894,0 </coordinates></LineString></Placemark><Placemark><name /><description>CS</description><styleUrl>#CS_92</styleUrl><LineString><coordinates>34.5429920402383,10.0769305832366,0 34.5430320437277,10.0766845293096,0 </coordinates></LineString></Placemark><Placemark><name /><description>LS</description><styleUrl>#LS_6</styleUrl><LineString><coordinates>34.5430591785487,10.0795361608675,0 34.5430595676879,10.0794819474644,0 </coordinates></LineString></Placemark><Placemark><name /><description>LS</description><styleUrl>#LS_6</styleUrl><LineString><coordinates>34.5430589901744,10.0794819492582,0 34.5430766112339,10.0785098503662,0 </coordinates></LineString></Placemark><Placemark><name /><description>LS</description><styleUrl>#LS_6</styleUrl><LineString><coordinates>34.5436250372549,10.0795335168653,0 34.5436254235538,10.079479683229,0 34.5430041758857,10.079482168271,0 </coordinates></LineString></Placemark><Placemark><name /><description>LS</description><styleUrl>#LS_6</styleUrl><LineString><coordinates>34.5452525492527,10.0783331792337,0 34.5450801848046,10.0784651085977,0 </coordinates></LineString></Placemark><Placemark><name /><description>LS</description><styleUrl>#LS_6</styleUrl><LineString><coordinates>34.5433711029829,10.0779518092754,0 34.5434602772889,10.0781481931864,0 34.5436367149265,10.0785367510766,0 34.5436417472919,10.078547834066,0 </coordinates></LineString></Placemark><Placemark><name /><description>LS</description><styleUrl>#LS_6</styleUrl><LineString><coordinates>34.5439239157267,10.0792789903965,0 34.5439763425878,10.0793453418656,0 34.5441231852234,10.0795311884426,0 </coordinates></LineString></Placemark><Placemark><name /><description>LS</description><styleUrl>#LS_6</styleUrl><LineString><coordinates>34.5450801848046,10.0784651085977,0 34.5446781661643,10.0787728171262,0 34.5436248579051,10.0794796858724,0 34.5436417472919,10.078547834066,0 </coordinates></LineString></Placemark><Placemark><name /><description>LS</description><styleUrl>#LS_6</styleUrl><LineString><coordinates>34.5450801848046,10.0784651085977,0 34.544535271287,10.0775076090466,0 34.5441516271935,10.0768334816365,0 34.5441068128289,10.0767547349066,0 </coordinates></LineString></Placemark><Placemark><name /><description>LS</description><styleUrl>#LS_6</styleUrl><LineString><coordinates>34.5446747857463,10.0787750860598,0 34.5452488698419,10.0795259240475,0 </coordinates></LineString></Placemark><Placemark><name /><description>LS</description><styleUrl>#LS_6</styleUrl><LineString><coordinates>34.5429937436412,10.0772887738645,0 34.543708223899,10.0768924180537,0 </coordinates></LineString></Placemark><Placemark><name /><description>LS</description><styleUrl>#LS_6</styleUrl><LineString><coordinates>34.543708223899,10.0768924180537,0 34.5440154703023,10.0768971955848,0 </coordinates></LineString></Placemark><Placemark><name /><description>LS</description><styleUrl>#LS_6</styleUrl><LineString><coordinates>34.5436707187577,10.0766815458607,0 34.543708223899,10.0768924180537,0 </coordinates></LineString></Placemark><Placemark><name /><description>LS</description><styleUrl>#LS_6</styleUrl><LineString><coordinates>34.5445545775567,10.0775415326721,0 34.544597984883,10.077519769514,0 34.5450314580073,10.0773024433585,0 34.545231106219,10.0772023476713,0 </coordinates></LineString></Placemark><Placemark><name /><description>Commerce</description><styleUrl>#Commerce_10</styleUrl><LineString><coordinates>34.5452487732982,10.0775404007432,0 34.5452219235067,10.0774872265615,0 34.5451915403106,10.0774270541638,0 34.5451367662328,10.0773185789532,0 34.5451294052954,10.0773039988042,0 34.5450520511605,10.0773427812546,0 34.5448178924904,10.0774601789842,0 34.544625904034,10.0775564349151,0 34.5446296973918,10.0775631006093,0 34.5447134696259,10.0777103013301,0 34.5450103422837,10.0782319546682,0 34.545078584399,10.0783518648774,0 34.5450967894896,10.078383855121,0 34.5452522239546,10.0782648840302,0 </coordinates></LineString></Placemark><Placemark><name /><description>Manufacturing</description><styleUrl>#Manufacturing_202</styleUrl><LineString><coordinates>34.5451918406313,10.0795261908434,0 34.544767790775,10.0789715808406,0 34.5446700674677,10.0788437696957,0 34.5446555581228,10.078853506457,0 34.5446012294734,10.0788899660343,0 34.5444775935084,10.0789729378544,0 34.5443366233597,10.0790675420215,0 34.5442140540334,10.0791497972134,0 34.5440031787638,10.0792913140761,0 34.5440194427779,10.079311897738,0 34.5440319948644,10.0793277836402,0 34.5441924548969,10.0795308646057,0 </coordinates></LineString></Placemark><Placemark><name /><description>Manufacturing</description><styleUrl>#Manufacturing_202</styleUrl><LineString><coordinates>34.5443928709882,10.076678170977,0 34.5442293962988,10.076769357921,0 34.544190369253,10.076791127672,0 34.5441943677574,10.0767981531687,0 34.5441993074703,10.0768068333704,0 34.5442173485959,10.0768385342264,0 34.5445810406708,10.077477601715,0 34.5450108648598,10.0772621054603,0 34.5450885785053,10.0772231432238,0 34.545072526461,10.0771905398351,0 34.5450694356664,10.0771835028743,0 34.5448968319476,10.0767249915188,0 34.5448785952313,10.0766759826967,0 34.5448785645568,10.0766759002642,0 </coordinates></LineString></Placemark><Placemark><name /><description>Manufacturing</description><styleUrl>#Manufacturing_202</styleUrl><LineString><coordinates>34.5440539155373,10.0795315122651,0 34.5439455053413,10.0793943061634,0 34.5439332423885,10.0793787859887,0 34.5439123109257,10.0793522947631,0 34.5436799586572,10.0795082244434,0 34.5436797790573,10.0795332610301,0 </coordinates></LineString></Placemark><Placemark><name /><description>Recreational</description><styleUrl>#Recreational_90</styleUrl><LineString><coordinates>34.543003917849,10.0794279217379,0 34.5430052197577,10.0794279165332,0 34.5430117690627,10.0790666396106,0 34.5430134082094,10.0789762220449,0 34.5430169392407,10.0787813859615,0 34.543000988061,10.0788119768586,0 </coordinates></LineString></Placemark><Placemark><name /><description>Residence</description><styleUrl>#Residence_50</styleUrl><LineString><coordinates>34.5429995028085,10.0784997092105,0 34.543202424103,10.0781105467717,0 34.5432588972332,10.0780022422366,0 34.5431812821251,10.0779415606102,0 34.5430736750604,10.0778574308336,0 34.5429961598381,10.0777968274636,0 </coordinates></LineString></Placemark><Placemark><name /><description>Residence</description><styleUrl>#Residence_50</styleUrl><LineString><coordinates>34.5429953352179,10.0776234376446,0 34.5430296275715,10.0776502484654,0 34.5431474077034,10.0777423324261,0 34.5431670122445,10.0777576601264,0 34.5432538022845,10.0778255157822,0 34.5433276618424,10.0778832601957,0 34.5436105844358,10.0774202118122,0 34.5436604656523,10.0773385732226,0 34.5439035840762,10.0769406689153,0 34.5437626740148,10.0769384775094,0 34.5437197885818,10.0769378108218,0 34.5436744504187,10.0769629625748,0 34.5433729070633,10.0771302429638,0 34.5432133137485,10.0772187763687,0 34.5429939893732,10.0773404451608,0 </coordinates></LineString></Placemark><Placemark><name /><description>Residence</description><styleUrl>#Residence_50</styleUrl><LineString><coordinates>34.5431014036955,10.0766842053674,0 34.5430752433535,10.0768451154609,0 34.5430598594936,10.0769397327856,0 34.5430579536964,10.0769514566854,0 34.5430573009452,10.0769548213429,0 34.5430278105792,10.0770884379138,0 34.5429983192889,10.077222055393,0 34.5429955152693,10.0772359832714,0 34.5433922996889,10.0770158685371,0 34.543437606949,10.0769907341418,0 34.5434790705811,10.0769677324914,0 34.5436576770531,10.0768686510104,0 34.5436514750762,10.0768337854487,0 34.543624436885,10.0766817620991,0 </coordinates></LineString></Placemark><Placemark><name /><description>Residence</description><styleUrl>#Residence_50</styleUrl><LineString><coordinates>34.5437169267061,10.0766813299612,0 34.5437226711743,10.0767135488155,0 34.5437466085781,10.0768478027292,0 34.5438524617143,10.076849448214,0 34.5439583139385,10.0768510945732,0 34.5440378570981,10.0767209094624,0 34.5440452114213,10.0767109141381,0 34.5440541762607,10.0767023072855,0 34.544064490974,10.0766953414744,0 34.5440927584265,10.0766795737053,0 </coordinates></LineString></Placemark><Placemark><name /><description>Service</description><styleUrl>#Service_170</styleUrl><LineString><coordinates>34.5451699652781,10.076674537566,0 34.5452456065276,10.0768754724994,0 </coordinates></LineString></Placemark><Placemark><name /><description>Service</description><styleUrl>#Service_170</styleUrl><LineString><coordinates>34.5452528744459,10.0784014519262,0 34.5451155861176,10.0785065218579,0 34.5451135995593,10.0785079777795,0 34.5451079180851,10.0785121399066,0 34.5448733947621,10.0786918304633,0 34.5448129137692,10.0787381703902,0 34.5447524318503,10.078784511217,0 34.5447441041538,10.0787908918245,0 34.5447734888957,10.0788293242682,0 34.5447981400574,10.0788615646667,0 34.5449157718403,10.0790154142091,0 34.5452579306764,10.0794629197048,0 </coordinates></LineString></Placemark></Folder><Folder><name>Area Features</name><Placemark><name /><description>0</description><styleUrl>#0_7</styleUrl><Polygon><outerBoundaryIs><LinearRing><coordinates>34.5452446479397,10.0766741882807,0 34.5429908710614,10.0766847215975,0 34.5430044339325,10.0795364166129,0 34.5452582306023,10.0795258802547,0 34.5452446479397,10.0766741882807,0 </coordinates></LinearRing></outerBoundaryIs></Polygon></Placemark><Placemark><name /><description>KG Boundary</description><styleUrl>#KG Boundary_3</styleUrl><Polygon><outerBoundaryIs><LinearRing><coordinates>34.5435137164105,10.0781336837029,0 34.543611948485,10.0783500139552,0 34.5436826852223,10.0782887147131,0 34.5437110220791,10.0780944093505,0 34.5438269224801,10.077963949425,0 34.543771757189,10.0779136262897,0 34.5435137164105,10.0781336837029,0 34.5435137164105,10.0781336837029,0 </coordinates></LinearRing></outerBoundaryIs></Polygon></Placemark><Placemark><name /><description>Service</description><styleUrl>#Service_170</styleUrl><Polygon><outerBoundaryIs><LinearRing><coordinates>34.5435101966183,10.0781259322813,0 34.5436350355287,10.0784008570289,0 34.5436866342956,10.0785144901383,0 34.5436959541378,10.0785777927253,0 34.543683728613,10.0792522988089,0 34.5436814833861,10.0793761679898,0 34.5438363748676,10.0792722224735,0 34.5438932219467,10.0792340722346,0 34.5445480532584,10.0787946195741,0 34.5446440901151,10.0787301697915,0 34.5446460590677,10.0787288477679,0 34.5450092353364,10.0784508692677,0 34.5445573673541,10.0776568666713,0 34.5445068972223,10.0775681819042,0 34.5444875909552,10.0775342582755,0 34.544446099603,10.0774613513203,0 34.5443404424325,10.0772756937839,0 34.5441133479152,10.0768766507811,0 34.5437350810628,10.0774957472659,0 34.5436003449747,10.0777162655942,0 34.543521484947,10.0778453326512,0 34.5434419150984,10.0779755603184,0 34.5434641531172,10.0780245324593,0 34.5435101966183,10.0781259322813,0 </coordinates></LinearRing></outerBoundaryIs></Polygon></Placemark><Placemark><name /><description>Residence</description><styleUrl>#Residence_50</styleUrl><Polygon><outerBoundaryIs><LinearRing><coordinates>34.5434103579561,10.078170454989,0 34.5433755123153,10.0780937149026,0 34.5433321080548,10.0781769560975,0 34.5432312451381,10.0783703897697,0 34.5431303830304,10.0785638243267,0 34.5431220727155,10.0790222959339,0 34.5431147278826,10.0794274781857,0 34.5435710874085,10.0794256532535,0 34.5435867946374,10.0785590120126,0 34.5434103579561,10.078170454989,0 </coordinates></LinearRing></outerBoundaryIs></Polygon></Placemark><Placemark><name /><description>Service</description><styleUrl>#Service_170</styleUrl><Polygon><outerBoundaryIs><LinearRing><coordinates>34.5435101966183,10.0781259322813,0 34.5436350355287,10.0784008570289,0 34.5436866342956,10.0785144901383,0 34.5436959541378,10.0785777927253,0 34.543683728613,10.0792522988089,0 34.5436814833861,10.0793761679898,0 34.5438363748676,10.0792722224735,0 34.5438932219467,10.0792340722346,0 34.5445480532584,10.0787946195741,0 34.5446440901151,10.0787301697915,0 34.5446460590677,10.0787288477679,0 34.5450092353364,10.0784508692677,0 34.5445573673541,10.0776568666713,0 34.5445068972223,10.0775681819042,0 34.5444875909552,10.0775342582755,0 34.544446099603,10.0774613513203,0 34.5443404424325,10.0772756937839,0 34.5441133479152,10.0768766507811,0 34.5437350810628,10.0774957472659,0 34.5436003449747,10.0777162655942,0 34.543521484947,10.0778453326512,0 34.5434419150984,10.0779755603184,0 34.5434641531172,10.0780245324593,0 34.5435101966183,10.0781259322813,0 </coordinates></LinearRing></outerBoundaryIs></Polygon></Placemark></Folder><Folder><name>Hatch Fill Features</name></Folder></Document></kml>