<?xml version="1.0" encoding="utf-8"?><kml xmlns:gx="http://www.google.com/kml/ext/2.2" xmlns:kml="http://www.opengis.net/kml/2.2" xmlns:atom="http://www.w3.org/2005/Atom" xmlns="http://www.opengis.net/kml/2.2"><Document><Style id="point1"><IconStyle><Icon><href>kml_symbol_dot_0_t.png</href></Icon></IconStyle></Style><Style id="point2"><IconStyle><Icon><href>kml_symbol_dot_0.png</href></Icon></IconStyle></Style><Style id="KG Boundary_3"><LineStyle><color>bf00FF00</color><width>1</width></LineStyle><PolyStyle><color>bf00FF00</color><fill>0</fill><outline>1</outline></PolyStyle></Style><Style id="Service_170"><LineStyle><color>bfFF0000</color><width>1</width></LineStyle><PolyStyle><color>bfFF0000</color><fill>0</fill><outline>1</outline></PolyStyle></Style><Style id="CS_92"><LineStyle><color>bf00CC00</color><width>1</width></LineStyle><PolyStyle><color>bf00CC00</color><fill>0</fill><outline>1</outline></PolyStyle></Style><Style id="Admin_24"><LineStyle><color>bf002699</color><width>1</width></LineStyle><PolyStyle><color>bf002699</color><fill>0</fill><outline>1</outline></PolyStyle></Style><Style id="Commerce_10"><LineStyle><color>bf0000FF</color><width>1</width></LineStyle><PolyStyle><color>bf0000FF</color><fill>0</fill><outline>1</outline></PolyStyle></Style><Style id="Mixed_30"><LineStyle><color>bf007FFF</color><width>1</width></LineStyle><PolyStyle><color>bf007FFF</color><fill>0</fill><outline>1</outline></PolyStyle></Style><Style id="BUILDING_2"><LineStyle><color>bf00FFFF</color><width>1</width></LineStyle><PolyStyle><color>bf00FFFF</color><fill>0</fill><outline>1</outline></PolyStyle></Style><Style id="Fence_5"><LineStyle><color>bfFF0000</color><width>1</width></LineStyle><PolyStyle><color>bfFF0000</color><fill>0</fill><outline>1</outline></PolyStyle></Style><Style id="0_7"><LineStyle><color>bfFFFFFF</color><width>1</width></LineStyle><PolyStyle><color>bfFFFFFF</color><fill>0</fill><outline>1</outline></PolyStyle></Style><Style id="Road width_130"><IconStyle><Icon /></IconStyle><LabelStyle><color>bfFFFF00</color></LabelStyle></Style><Style id="Detail Land Use Code_7"><IconStyle><Icon /></IconStyle><LabelStyle><color>bfFFFFFF</color></LabelStyle></Style><ScreenOverlay><name>Cadomation</name><Icon><href>cadomation_logo.jpg</href></Icon><overlayXY x="0" y="1" xunits="fraction" yunits="fraction" /><screenXY x="0.01" y="0.99" xunits="fraction" yunits="fraction" /></ScreenOverlay><StyleMap id="default"><Pair><key>normal</key><styleUrl>#default0</styleUrl></Pair><Pair><key>highlight</key><styleUrl>#h1</styleUrl></Pair></StyleMap><Style id="default0"><LabelStyle><color>ffffffff</color></LabelStyle><LineStyle><color>ffff5555</color></LineStyle><PolyStyle><fill>0</fill></PolyStyle></Style><Style id="h1"><LabelStyle><color>ffffff00</color></LabelStyle><LineStyle><color>ffff5500</color></LineStyle><PolyStyle><fill>1</fill><color>ffff5500</color></PolyStyle></Style><Folder><name>Point Features</name></Folder><Folder><name>Label Features</name><Placemark><name>20m</name><styleUrl>#Road width_130</styleUrl><Point><coordinates>34.5392631935064,10.0622239114384,0</coordinates></Point></Placemark><Placemark><name>15m</name><styleUrl>#Road width_130</styleUrl><Point><coordinates>34.5394028447256,10.0622275855662,0</coordinates></Point></Placemark><Placemark><name>S-11</name><styleUrl>#Detail Land Use Code_7</styleUrl><Point><coordinates>34.5387062594128,10.0622310597251,0</coordinates></Point></Placemark></Folder><Folder><name>Line Features</name><Placemark><name /><description>KG Boundary</description><styleUrl>#KG Boundary_3</styleUrl><LineString><coordinates>34.5387191197631,10.0625234003625,1570.28 34.5388520636526,10.0622875577118,1570.28 34.5389323960622,10.0621389683488,1570.28 34.5391643419806,10.0623032192457,1570.28 34.5391195172293,10.0624539827385,1570.28 34.5390382189183,10.0626413014169,1570.28 34.5387191197631,10.0625234003625,1570.28 </coordinates></LineString></Placemark><Placemark><name /><description>Service</description><styleUrl>#Service_170</styleUrl><LineString><coordinates>34.538221959015,10.0623434477561,0 34.5382335951671,10.0623476759345,0 34.5383318146888,10.0623833552957,0 34.5384581135979,10.0621136906576,0 34.5385422146833,10.0619573482864,0 34.5390627855057,10.0619528511844,0 34.5390478902078,10.0617783684733,0 </coordinates></LineString></Placemark><Placemark><name /><description>CS</description><styleUrl>#CS_92</styleUrl><LineString><coordinates>34.5382224171388,10.0624402250778,0 34.5387332500579,10.0626257889463,0 34.5390718957305,10.0627500736325,0 </coordinates></LineString></Placemark><Placemark><name /><description>CS</description><styleUrl>#CS_92</styleUrl><LineString><coordinates>34.5389760340259,10.0628748371557,0 34.5390091118527,10.0628333898856,0 34.5390718957305,10.0627500736325,0 </coordinates></LineString></Placemark><Placemark><name /><description>CS</description><styleUrl>#CS_92</styleUrl><LineString><coordinates>34.5390718957305,10.0627500736325,0 34.5393010096906,10.0628341602019,0 34.539403215411,10.0628728496563,0 </coordinates></LineString></Placemark><Placemark><name /><description>CS</description><styleUrl>#CS_92</styleUrl><LineString><coordinates>34.5390718957305,10.0627500736325,0 34.539115345155,10.0626924147814,0 34.5392052899211,10.0624851763891,0 34.5392611869741,10.0623042822919,0 34.5393079813731,10.062073595789,0 34.5393140798088,10.0617771301387,0 </coordinates></LineString></Placemark><Placemark><name /><description>CS</description><styleUrl>#CS_92</styleUrl><LineString><coordinates>34.5392772480904,10.0622251037763,0 34.5394382063563,10.0622465444367,0 </coordinates></LineString></Placemark><Placemark><name /><description>Admin</description><styleUrl>#Admin_24</styleUrl><LineString><coordinates>34.5388592852849,10.0628753802437,0 34.5389252846782,10.0627926818502,0 34.5387018031759,10.0627106628092,0 34.5387017099595,10.0627106288852,0 34.5382871733544,10.0625600451324,0 34.5382235730855,10.0626844111091,0 </coordinates></LineString></Placemark><Placemark><name /><description>Commerce</description><styleUrl>#Commerce_10</styleUrl><LineString><coordinates>34.539146971186,10.0628740419216,0 34.5391041770552,10.0628583360652,0 34.5390921496653,10.062874296972,0 </coordinates></LineString></Placemark><Placemark><name /><description>Commerce</description><styleUrl>#Commerce_10</styleUrl><LineString><coordinates>34.5394385307065,10.0623150090843,0 34.539354341585,10.0623037946232,0 34.5393506276302,10.0623221027896,0 34.5393484179604,10.0623307576166,0 34.5392925209558,10.0625116517218,0 34.5392890961724,10.06252090261,0 34.5392095505231,10.0627041806694,0 34.53933312724,10.0627495372479,0 34.539440782398,10.0627902882669,0 </coordinates></LineString></Placemark><Placemark><name /><description>Commerce</description><styleUrl>#Commerce_10</styleUrl><LineString><coordinates>34.5394053374117,10.061776705552,0 34.5394044976606,10.0618175254899,0 34.5393991927949,10.0620754399107,0 34.5393978989418,10.062088878837,0 34.5393974219644,10.0620914162834,0 34.5393813688978,10.0621705540762,0 34.5394378820187,10.0621780819401,0 </coordinates></LineString></Placemark><Placemark><name /><description>Mixed</description><styleUrl>#Mixed_30</styleUrl><LineString><coordinates>34.5390478902078,10.0617783684733,0 34.5390627855057,10.0619528511844,0 34.5390717376341,10.0619527742791,0 34.5391128573843,10.06195241844,0 34.5392192438177,10.0619514994738,0 34.5392228219542,10.0617775547014,0 </coordinates></LineString></Placemark><Placemark><name /><description>Service</description><styleUrl>#Service_170</styleUrl><LineString><coordinates>34.5382235730855,10.0626844111091,0 34.5382871733544,10.0625600451324,0 34.538222873779,10.0625366880196,0 </coordinates></LineString></Placemark></Folder><Folder><name>Area Features</name><Placemark><name /><description>BUILDING</description><styleUrl>#BUILDING_2</styleUrl><Polygon><outerBoundaryIs><LinearRing><coordinates>34.5387807114646,10.062546795245,0 34.5388570648976,10.0625743685107,0 34.5388699220675,10.062540190633,0 34.5387941165727,10.0625139919897,0 34.5387807114646,10.062546795245,0 </coordinates></LinearRing></outerBoundaryIs></Polygon></Placemark><Placemark><name /><description>Fence</description><styleUrl>#Fence_5</styleUrl><Polygon><outerBoundaryIs><LinearRing><coordinates>34.5392192438177,10.0619514994738,0 34.5391128573843,10.06195241844,0 34.5390717376341,10.0619527742791,0 34.5390627855057,10.0619528511844,0 34.5385422146833,10.0619573482864,0 34.5384581135979,10.0621136906576,0 34.5383318146888,10.0623833552957,0 34.5387647892433,10.062540951723,0 34.5390382189183,10.0626413014169,0 34.5391195172293,10.0624539827385,0 34.5391726342508,10.0622820842801,0 34.5391878074714,10.0622072850623,0 34.5392169361138,10.062063688593,0 34.5392192438177,10.0619514994738,0 </coordinates></LinearRing></outerBoundaryIs></Polygon></Placemark><Placemark><name /><description>BUILDING</description><styleUrl>#BUILDING_2</styleUrl><Polygon><outerBoundaryIs><LinearRing><coordinates>34.5388960438335,10.0622492858014,0 34.5390204710628,10.0622823075276,0 34.5390355400111,10.0622149562535,0 34.5389184219707,10.0621745528552,0 34.5388960438335,10.0622492858014,0 </coordinates></LinearRing></outerBoundaryIs></Polygon></Placemark><Placemark><name /><description>BUILDING</description><styleUrl>#BUILDING_2</styleUrl><Polygon><outerBoundaryIs><LinearRing><coordinates>34.5385969044374,10.0621301650957,0 34.5385682093602,10.062187352924,0 34.5387601650409,10.062275809797,0 34.5387863376389,10.0622211454083,0 34.5385969044374,10.0621301650957,0 </coordinates></LinearRing></outerBoundaryIs></Polygon></Placemark><Placemark><name /><description>BUILDING</description><styleUrl>#BUILDING_2</styleUrl><Polygon><outerBoundaryIs><LinearRing><coordinates>34.5383355767965,10.0623847246513,0 34.5384207268673,10.0624157180945,0 34.538547782897,10.0621411429332,0 34.5384654047364,10.0621075716724,0 34.5383355767965,10.0623847246513,0 </coordinates></LinearRing></outerBoundaryIs></Polygon></Placemark><Placemark><name /><description>0</description><styleUrl>#0_7</styleUrl><Polygon><outerBoundaryIs><LinearRing><coordinates>34.5394359798894,10.0617765629786,0 34.5382193023788,10.0617822217573,0 34.5382244911063,10.0628783324375,0 34.539441172717,10.0628726730299,0 34.5394359798894,10.0617765629786,0 </coordinates></LinearRing></outerBoundaryIs></Polygon></Placemark></Folder><Folder><name>Hatch Fill Features</name></Folder></Document></kml>