<?xml version="1.0" encoding="utf-8"?><kml xmlns:gx="http://www.google.com/kml/ext/2.2" xmlns:kml="http://www.opengis.net/kml/2.2" xmlns:atom="http://www.w3.org/2005/Atom" xmlns="http://www.opengis.net/kml/2.2"><Document><Style id="point1"><IconStyle><Icon><href>kml_symbol_dot_0_t.png</href></Icon></IconStyle></Style><Style id="point2"><IconStyle><Icon><href>kml_symbol_dot_0.png</href></Icon></IconStyle></Style><Style id="BUILDING_2"><LineStyle><color>bf00FFFF</color><width>1</width></LineStyle><PolyStyle><color>bf00FFFF</color><fill>0</fill><outline>1</outline></PolyStyle></Style><Style id="KG Boundary_3"><LineStyle><color>bf00FF00</color><width>1</width></LineStyle><PolyStyle><color>bf00FF00</color><fill>0</fill><outline>1</outline></PolyStyle></Style><Style id="SAS_5"><LineStyle><color>bfFF0000</color><width>1</width></LineStyle><PolyStyle><color>bfFF0000</color><fill>0</fill><outline>1</outline></PolyStyle></Style><Style id="CS_92"><LineStyle><color>bf00CC00</color><width>1</width></LineStyle><PolyStyle><color>bf00CC00</color><fill>0</fill><outline>1</outline></PolyStyle></Style><Style id="LS_6"><LineStyle><color>bfFF00FF</color><width>1</width></LineStyle><PolyStyle><color>bfFF00FF</color><fill>0</fill><outline>1</outline></PolyStyle></Style><Style id="Admin_24"><LineStyle><color>bf002699</color><width>1</width></LineStyle><PolyStyle><color>bf002699</color><fill>0</fill><outline>1</outline></PolyStyle></Style><Style id="Commerce_10"><LineStyle><color>bf0000FF</color><width>1</width></LineStyle><PolyStyle><color>bf0000FF</color><fill>0</fill><outline>1</outline></PolyStyle></Style><Style id="Mixed_30"><LineStyle><color>bf007FFF</color><width>1</width></LineStyle><PolyStyle><color>bf007FFF</color><fill>0</fill><outline>1</outline></PolyStyle></Style><Style id="Service_170"><LineStyle><color>bfFF0000</color><width>1</width></LineStyle><PolyStyle><color>bfFF0000</color><fill>0</fill><outline>1</outline></PolyStyle></Style><Style id="0_7"><LineStyle><color>bfFFFFFF</color><width>1</width></LineStyle><PolyStyle><color>bfFFFFFF</color><fill>0</fill><outline>1</outline></PolyStyle></Style><Style id="BUILDING_2"><LineStyle><color>bf00FFFF</color><width>1</width></LineStyle><PolyStyle><color>bf00FFFF</color><fill>0</fill><outline>1</outline></PolyStyle></Style><Style id="BUILDING_7"><LineStyle><color>bfFFFFFF</color><width>1</width></LineStyle><PolyStyle><color>bfFFFFFF</color><fill>0</fill><outline>1</outline></PolyStyle></Style><Style id="Mixed_30"><LineStyle><color>bf007FFF</color><width>1</width></LineStyle><PolyStyle><color>bf007FFF</color><fill>0</fill><outline>1</outline></PolyStyle></Style><Style id="Fence_7"><LineStyle><color>bfFFFFFF</color><width>1</width></LineStyle><PolyStyle><color>bfFFFFFF</color><fill>0</fill><outline>1</outline></PolyStyle></Style><Style id="Service_170"><LineStyle><color>bfFF0000</color><width>1</width></LineStyle><PolyStyle><color>bfFF0000</color><fill>0</fill><outline>1</outline></PolyStyle></Style><Style id="Road width_130"><IconStyle><Icon /></IconStyle><LabelStyle><color>bfFFFF00</color></LabelStyle></Style><Style id="Detail Land Use Code_7"><IconStyle><Icon /></IconStyle><LabelStyle><color>bfFFFFFF</color></LabelStyle></Style><ScreenOverlay><name>Cadomation</name><Icon><href>cadomation_logo.jpg</href></Icon><overlayXY x="0" y="1" xunits="fraction" yunits="fraction" /><screenXY x="0.01" y="0.99" xunits="fraction" yunits="fraction" /></ScreenOverlay><StyleMap id="default"><Pair><key>normal</key><styleUrl>#default0</styleUrl></Pair><Pair><key>highlight</key><styleUrl>#h1</styleUrl></Pair></StyleMap><Style id="default0"><LabelStyle><color>ffffffff</color></LabelStyle><LineStyle><color>ffff5555</color></LineStyle><PolyStyle><fill>0</fill></PolyStyle></Style><Style id="h1"><LabelStyle><color>ffffff00</color></LabelStyle><LineStyle><color>ffff5500</color></LineStyle><PolyStyle><fill>1</fill><color>ffff5500</color></PolyStyle></Style><Folder><name>Point Features</name></Folder><Folder><name>Label Features</name><Placemark><name>15m</name><styleUrl>#Road width_130</styleUrl><Point><coordinates>34.5368764942299,10.0610131694753,0</coordinates></Point></Placemark><Placemark><name>20m</name><styleUrl>#Road width_130</styleUrl><Point><coordinates>34.5392631935064,10.0622239114384,0</coordinates></Point></Placemark><Placemark><name>20m</name><styleUrl>#Road width_130</styleUrl><Point><coordinates>34.5393387430744,10.060572863874,0</coordinates></Point></Placemark><Placemark><name>15m</name><styleUrl>#Road width_130</styleUrl><Point><coordinates>34.5378523535556,10.0595989651346,0</coordinates></Point></Placemark><Placemark><name>15m</name><styleUrl>#Road width_130</styleUrl><Point><coordinates>34.5394028447256,10.0622275855662,0</coordinates></Point></Placemark><Placemark><name>12m</name><styleUrl>#Road width_130</styleUrl><Point><coordinates>34.5368331592342,10.0608765827739,0</coordinates></Point></Placemark><Placemark><name>15m</name><styleUrl>#Road width_130</styleUrl><Point><coordinates>34.5386572333714,10.0597007674424,0</coordinates></Point></Placemark><Placemark><name>CO-21</name><styleUrl>#Detail Land Use Code_7</styleUrl><Point><coordinates>34.537508997106,10.0626427281386,0</coordinates></Point></Placemark><Placemark><name>CO-21</name><styleUrl>#Detail Land Use Code_7</styleUrl><Point><coordinates>34.5393389728796,10.0625299612963,0</coordinates></Point></Placemark><Placemark><name>CO-21</name><styleUrl>#Detail Land Use Code_7</styleUrl><Point><coordinates>34.5394402697878,10.0618209627194,0</coordinates></Point></Placemark><Placemark><name>AD-12</name><styleUrl>#Detail Land Use Code_7</styleUrl><Point><coordinates>34.5383492642761,10.0628847744045,0</coordinates></Point></Placemark><Placemark><name>S-61</name><styleUrl>#Detail Land Use Code_7</styleUrl><Point><coordinates>34.5378045058726,10.0628123162378,0</coordinates></Point></Placemark><Placemark><name>S-11</name><styleUrl>#Detail Land Use Code_7</styleUrl><Point><coordinates>34.5387062594128,10.0622310597251,0</coordinates></Point></Placemark><Placemark><name>R-2</name><styleUrl>#Detail Land Use Code_7</styleUrl><Point><coordinates>34.5390395689854,10.0607683864908,0</coordinates></Point></Placemark><Placemark><name>R-2</name><styleUrl>#Detail Land Use Code_7</styleUrl><Point><coordinates>34.5368965121586,10.0618681870263,0</coordinates></Point></Placemark><Placemark><name>S-12</name><styleUrl>#Detail Land Use Code_7</styleUrl><Point><coordinates>34.5379015821692,10.0610118923176,0</coordinates></Point></Placemark></Folder><Folder><name>Line Features</name><Placemark><name /><description>BUILDING</description><styleUrl>#BUILDING_2</styleUrl><LineString><coordinates>34.5381787582059,10.0616646734191,0 34.538186967064,10.0617445732602,0 34.5382768191986,10.0617355063341,0 34.5382678776434,10.0616588900323,0 34.5381787582059,10.0616646734191,0 </coordinates></LineString></Placemark><Placemark><name /><description>BUILDING</description><styleUrl>#BUILDING_2</styleUrl><LineString><coordinates>34.5382796257737,10.0616477590392,0 34.538284968285,10.0617682417525,0 34.5384048195484,10.0617605959766,0 34.5384014012095,10.0616497635861,0 34.5382796257737,10.0616477590392,0 </coordinates></LineString></Placemark><Placemark><name /><description>KG Boundary</description><styleUrl>#KG Boundary_3</styleUrl><LineString><coordinates>34.5386052330772,10.0619175899376,0 34.5384459701968,10.0614478246901,0 34.5389356831103,10.0614330117335,0 34.5389878929661,10.0619109122586,0 34.5386052330772,10.0619175899376,0 </coordinates></LineString></Placemark><Placemark><name /><description>SAS</description><styleUrl>#SAS_5</styleUrl><LineString><coordinates>34.5366803172162,10.0619779949762,0 34.5367429837901,10.0620608582045,0 34.5369272111804,10.062301764281,0 34.5372410751866,10.0627396593526,0 34.5372476113101,10.0627497625897,0 </coordinates></LineString></Placemark><Placemark><name /><description>CS</description><styleUrl>#CS_92</styleUrl><LineString><coordinates>34.537363971391,10.0627492218834,0 34.5375259298022,10.062504561993,0 34.537556506972,10.0624633300082,0 34.5375923250959,10.0624264759572,0 34.5376327531896,10.0623946492363,0 34.5376770795648,10.0623684101064,0 34.5377245218212,10.0623482206048,0 34.5377742450585,10.0623344372281,0 34.5378253718724,10.0623273027482,0 34.5378770024124,10.0623269434065,0 34.5379282253073,10.0623333643432,0 34.5380189992795,10.0623663126276,0 34.5382019403657,10.0624327867152,0 34.5387332500579,10.0626257889463,0 34.5390482370543,10.0627413907929,0 </coordinates></LineString></Placemark><Placemark><name /><description>CS</description><styleUrl>#CS_92</styleUrl><LineString><coordinates>34.5390785450252,10.0627412497957,0 34.539115345155,10.0626924147814,0 34.5392052899211,10.0624851763891,0 34.5392611869741,10.0623042822919,0 34.5393079813731,10.062073595789,0 34.5393185921937,10.0615577687301,0 34.5393178092561,10.0613622389013,0 </coordinates></LineString></Placemark><Placemark><name /><description>CS</description><styleUrl>#CS_92</styleUrl><LineString><coordinates>34.5393178092561,10.0613622389013,0 34.5394341268585,10.0613853919305,0 </coordinates></LineString></Placemark><Placemark><name /><description>CS</description><styleUrl>#CS_92</styleUrl><LineString><coordinates>34.5393178092561,10.0613622389013,0 34.5393162844656,10.060981382341,0 34.5393278850722,10.060419845132,0 34.5393293141738,10.0599260423632,0 34.539334656329,10.0596511921632,0 </coordinates></LineString></Placemark><Placemark><name /><description>CS</description><styleUrl>#CS_92</styleUrl><LineString><coordinates>34.5392772480904,10.0622251037763,0 34.5394382063563,10.0622465444367,0 </coordinates></LineString></Placemark><Placemark><name /><description>CS</description><styleUrl>#CS_92</styleUrl><LineString><coordinates>34.5366764689628,10.0611641777106,0 34.5368823007683,10.0610287702914,0 34.5378586802321,10.0597166459826,0 </coordinates></LineString></Placemark><Placemark><name /><description>CS</description><styleUrl>#CS_92</styleUrl><LineString><coordinates>34.5378586802321,10.0597166459826,0 34.5393334559509,10.0597129735738,0 34.5394262325014,10.0597187299019,0 </coordinates></LineString></Placemark><Placemark><name /><description>CS</description><styleUrl>#CS_92</styleUrl><LineString><coordinates>34.5378586802321,10.0597166459826,0 34.5378484562145,10.0596581020344,0 </coordinates></LineString></Placemark><Placemark><name /><description>LS</description><styleUrl>#LS_6</styleUrl><LineString><coordinates>34.5368823007683,10.0610287702914,0 34.5366734933258,10.0605348512837,0 </coordinates></LineString></Placemark><Placemark><name /><description>LS</description><styleUrl>#LS_6</styleUrl><LineString><coordinates>34.5367067703384,10.0620129736707,0 34.536680611092,10.0620401401123,0 </coordinates></LineString></Placemark><Placemark><name /><description>LS</description><styleUrl>#LS_6</styleUrl><LineString><coordinates>34.5393262077711,10.0605010290353,0 34.5393936518464,10.0605139519895,0 34.5394300320183,10.060520922769,0 </coordinates></LineString></Placemark><Placemark><name /><description>LS</description><styleUrl>#LS_6</styleUrl><LineString><coordinates>34.5386784473287,10.0597146056932,0 34.5386759044873,10.0596542557575,0 </coordinates></LineString></Placemark><Placemark><name /><description>Admin</description><styleUrl>#Admin_24</styleUrl><LineString><coordinates>34.5387888173109,10.0627425975385,0 34.5387018031759,10.0627106628092,0 34.5387017099595,10.0627106288852,0 34.5382871733544,10.0625600451324,0 34.5381923983518,10.0627453711358,0 </coordinates></LineString></Placemark><Placemark><name /><description>Admin</description><styleUrl>#Admin_24</styleUrl><LineString><coordinates>34.537081014249,10.0627505366679,0 34.5369818884604,10.0626122395681,0 34.5368317291214,10.062751694792,0 </coordinates></LineString></Placemark><Placemark><name /><description>Commerce</description><styleUrl>#Commerce_10</styleUrl><LineString><coordinates>34.5376835301433,10.0627477367355,0 34.5378715743821,10.0624173978247,0 34.5378320826415,10.0624176727147,0 34.5377929730571,10.062423131108,0 34.5377549412473,10.062433673028,0 34.5377186523363,10.0624491163627,0 34.5376847454678,10.062469186898,0 34.5376538220099,10.0624935319349,0 34.5376264236688,10.0625217221988,0 34.5376008759228,10.0625561732176,0 34.5374734192338,10.0627487132598,0 </coordinates></LineString></Placemark><Placemark><name /><description>Commerce</description><styleUrl>#Commerce_10</styleUrl><LineString><coordinates>34.5394385307065,10.0623150090843,0 34.539354341585,10.0623037946232,0 34.5393506276302,10.0623221027896,0 34.5393484179604,10.0623307576166,0 34.5392925209558,10.0625116517218,0 34.5392890961724,10.06252090261,0 34.5392095505231,10.0627041806694,0 34.5393076434852,10.0627401839059,0 </coordinates></LineString></Placemark><Placemark><name /><description>Commerce</description><styleUrl>#Commerce_10</styleUrl><LineString><coordinates>34.5394345641251,10.0614776994772,0 34.5394094821122,10.0614727068873,0 34.5394098213218,10.0615574111904,0 34.5394098034697,10.0615596128705,0 34.5394044976606,10.0618175254899,0 34.5393991927949,10.0620754399107,0 34.5393978989418,10.062088878837,0 34.5393974219644,10.0620914162834,0 34.5393813688978,10.0621705540762,0 34.5394378820187,10.0621780819401,0 </coordinates></LineString></Placemark><Placemark><name /><description>Mixed</description><styleUrl>#Mixed_30</styleUrl><LineString><coordinates>34.5366792411712,10.0617504431357,0 34.5368162725691,10.0619316369605,0 34.5368522702848,10.0619792367729,0 34.5370362727817,10.0622198481732,0 34.5370387748075,10.0622232261984,0 34.5373321260571,10.0626325034671,0 34.537449650325,10.0624549677679,0 34.5374524178417,10.0624510191534,0 34.5374829950178,10.0624097871745,0 34.5374863468216,10.0624055392841,0 34.5374907992894,10.0624006081682,0 34.5375266174159,10.0623637541241,0 34.5375333562114,10.0623574896148,0 34.5375355800788,10.0623556809307,0 34.5375760090837,10.0623238542129,0 34.537576483537,10.0623234794992,0 34.5375807609409,10.0623201124667,0 34.5375854525859,10.0623173348213,0 34.5375859711543,10.0623170286177,0 34.5376306960128,10.0622905561812,0 34.5376410835,10.0622853325649,0 34.5376885257481,10.0622651430698,0 34.537692571908,10.0622634208507,0 34.5376941033306,10.0622627690759,0 34.5376967382786,10.0622620389363,0 34.5377002007104,10.0622609270171,0 34.5377499239365,10.0622471436458,0 34.5377529969335,10.0622464431148,0 34.537756922936,10.0622455487482,0 34.5377615252445,10.0622449071117,0 34.5378126520452,10.0622377726357,0 34.5377065070313,10.0621900704253,0 34.537705038456,10.062189543804,0 34.5376187482246,10.0621586450805,0 34.537444774168,10.0620963486161,0 34.5373902539544,10.0620779159507,0 34.537160917033,10.0620024427542,0 34.5368137032435,10.0611552880323,0 34.5367342948183,10.0612075278013,0 34.5366768526242,10.061245316396,0 </coordinates></LineString></Placemark><Placemark><name /><description>Mixed</description><styleUrl>#Mixed_30</styleUrl><LineString><coordinates>34.5394302503149,10.0605670097285,0 34.5394161487843,10.0605643077554,0 34.5394118332549,10.0607732173589,0 34.5394075177189,10.06098212244,0 34.5394087427559,10.0612881206538,0 34.5394336896051,10.0612930863185,0 </coordinates></LineString></Placemark><Placemark><name /><description>Mixed</description><styleUrl>#Mixed_30</styleUrl><LineString><coordinates>34.5394265543959,10.0597866941595,0 34.5394232727892,10.0597864905569,0 34.5394205410477,10.0599270393088,0 34.5394191140686,10.0604201051685,0 34.5394190951494,10.0604216965547,0 34.5394180434398,10.0604725832061,0 34.5394298137355,10.060474838495,0 </coordinates></LineString></Placemark><Placemark><name /><description>Service</description><styleUrl>#Service_170</styleUrl><LineString><coordinates>34.5366728220815,10.0603928820708,0 34.5366745976117,10.0603970819767,0 34.5368893462498,10.0609050528779,0 34.5377862808023,10.0596996933208,0 34.5377790736797,10.0596584244554,0 </coordinates></LineString></Placemark><Placemark><name /><description>Service</description><styleUrl>#Service_170</styleUrl><LineString><coordinates>34.5366760853139,10.0610830409638,0 34.5368089459956,10.0609956385492,0 34.5366741645902,10.0606768226271,0 </coordinates></LineString></Placemark><Placemark><name /><description>Service</description><styleUrl>#Service_170</styleUrl><LineString><coordinates>34.5381923983518,10.0627453711358,0 34.5382871733544,10.0625600451324,0 34.5381705399564,10.0625176775086,0 34.5379876097882,10.0624512069757,0 34.537906540298,10.0624217813393,0 34.5378715743821,10.0624173978247,0 34.5376835301433,10.0627477367355,0 </coordinates></LineString></Placemark><Placemark><name /><description>Service</description><styleUrl>#Service_170</styleUrl><LineString><coordinates>34.5368317291214,10.062751694792,0 34.5369818884604,10.0626122395681,0 34.5368168671013,10.0623820055073,0 34.5366813899853,10.0622048486585,0 </coordinates></LineString></Placemark></Folder><Folder><name>Area Features</name><Placemark><name /><description>0</description><styleUrl>#0_7</styleUrl><Polygon><outerBoundaryIs><LinearRing><coordinates>34.5394259106188,10.0596507676722,0 34.5366693740235,10.0596635792583,0 34.536683979318,10.0627523811165,0 34.5394405420876,10.062739565517,0 34.5394259106188,10.0596507676722,0 </coordinates></LinearRing></outerBoundaryIs></Polygon></Placemark><Placemark><name /><description>BUILDING</description><styleUrl>#BUILDING_2</styleUrl><Polygon><outerBoundaryIs><LinearRing><coordinates>34.538197515055,10.0617671932522,0 34.5381974884166,10.0617686925494,0 34.5381973921016,10.0617702155072,0 34.5381972228086,10.0617717578636,0 34.5381969775453,10.0617733149227,0 34.5381966536919,10.0617748815767,0 34.5381962490626,10.061776452337,0 34.538195761966,10.0617780213769,0 34.5381951912592,10.0617795825836,0 34.5381945363974,10.0617811296193,0 34.5381937974736,10.0617826559923,0 34.5381929752491,10.0617841551347,0 34.5381920711725,10.0617856204861,0 34.5381910873853,10.0617870455816,0 34.5381900267139,10.0617884241407,0 34.5381888926484,10.0617897501562,0 34.5381876893063,10.0617910179788,0 34.5381864213843,10.0617922223969,0 34.5381850940967,10.0617933587073,0 34.5381837131048,10.0617944227763,0 34.5381822844372,10.061795411089,0 34.5381808144042,10.0617963207854,0 34.5381793095088,10.0617971496825,0 34.5381777763566,10.0617978962834,0 34.5381762215674,10.0617985597718,0 34.5381746516905,10.0617991399948,0 34.5381730731254,10.0617996374328,0 34.5381714920509,10.0618000531609,0 34.5381699143617,10.061800388801,0 34.5381683456162,10.0618006464674,0 34.5381667909928,10.0618008287086,0 34.5381652552576,10.0618009384458,0 34.5381637427418,10.0618009789109,0 34.5381622299095,10.0618009525107,0 34.5381606932031,10.0618008570573,0 34.5381591369229,10.0618006892787,0 34.5381575658073,10.0618004462096,0 34.5381559850102,10.0618001252534,0 34.5381544000698,10.061799724244,0 34.5381528168652,10.0617992415051,0 34.5381512415647,10.0617986759041,0 34.538149680563,10.061798026901,0 34.5381481404106,10.0617972945879,0 34.5381466277347,10.0617964797195,0 34.5381451491548,10.0617955837313,0 34.5381437111942,10.0617946087455,0 34.5381423201902,10.0617935575635,0 34.5381409822042,10.061792433644,0 34.5381397029363,10.0617912410678,0 34.5381384876454,10.0617899844894,0 34.5381373410771,10.0617886690766,0 34.5381362674024,10.06178730044,0 34.5381352701678,10.0617858845542,0 34.5381343522593,10.0617844276732,0 34.5381335158795,10.0617829362416,0 34.5381327625389,10.0617814168061,0 34.5381320930609,10.0617798759272,0 34.5381315076003,10.0617783200955,0 34.5381310056718,10.0617767556535,0 34.5381305861909,10.0617751887245,0 34.538130247521,10.0617736251506,0 34.5381299875288,10.0617720704403,0 34.5381298036426,10.0617705297257,0 34.5381296929149,10.0617690077305,0 34.5381296520847,10.0617675087469,0 34.5381296787234,10.0617660094496,0 34.5381297750387,10.0617644864918,0 34.5381299443321,10.0617629441354,0 34.5381301895957,10.0617613870762,0 34.5381305134495,10.0617598204223,0 34.538130918079,10.061758249662,0 34.538131405176,10.0617566806221,0 34.538131975883,10.0617551194155,0 34.5381326307452,10.0617535723799,0 34.5381333696693,10.061752046007,0 34.5381341918939,10.0617505468647,0 34.5381350959707,10.0617490815134,0 34.5381360797582,10.0617476564181,0 34.5381371404297,10.0617462778591,0 34.5381382744954,10.0617449518438,0 34.5381394778375,10.0617436840213,0 34.5381407457596,10.0617424796034,0 34.5381420730472,10.0617413432933,0 34.538143454039,10.0617402792244,0 34.5381448827065,10.0617392909119,0 34.5381463527394,10.0617383812157,0 34.5381478576347,10.0617375523188,0 34.5381493907867,10.0617368057181,0 34.5381509455757,10.0617361422297,0 34.5381525154524,10.061735562007,0 34.5381540940172,10.0617350645691,0 34.5381556750915,10.0617346488411,0 34.5381572527803,10.0617343132011,0 34.5381588215256,10.0617340555349,0 34.5381603761487,10.0617338732937,0 34.5381619118835,10.0617337635566,0 34.538163424399,10.0617337230915,0 34.538164937231,10.0617337494918,0 34.5381664739371,10.0617338449452,0 34.538168030217,10.0617340127238,0 34.5381696013323,10.0617342557929,0 34.538171182129,10.0617345767491,0 34.5381727670691,10.0617349777584,0 34.5381743502734,10.0617354604973,0 34.5381759255736,10.0617360260982,0 34.538177486575,10.0617366751012,0 34.5381790267271,10.0617374074142,0 34.5381805394028,10.0617382222825,0 34.5381820179825,10.0617391182706,0 34.5381834559429,10.0617400932562,0 34.5381848469468,10.0617411444381,0 34.5381861849327,10.0617422683574,0 34.5381874642005,10.0617434609334,0 34.5381886794913,10.0617447175117,0 34.5381898260596,10.0617460329243,0 34.5381908997344,10.0617474015607,0 34.5381918969691,10.0617488174463,0 34.5381928148776,10.0617502743272,0 34.5381936512576,10.0617517657586,0 34.5381944045984,10.0617532851939,0 34.5381950740765,10.0617548260726,0 34.5381956595375,10.0617563819042,0 34.5381961614661,10.0617579463461,0 34.5381965809473,10.061759513275,0 34.5381969196175,10.0617610768488,0 34.53819717961,10.061762631559,0 34.5381973634965,10.0617641722734,0 34.5381974742245,10.0617656942686,0 34.538197515055,10.0617671932522,0 34.538197515055,10.0617671932522,0 </coordinates></LinearRing></outerBoundaryIs></Polygon></Placemark><Placemark><name /><description>BUILDING</description><styleUrl>#BUILDING_2</styleUrl><Polygon><outerBoundaryIs><LinearRing><coordinates>34.537816715775,10.0612134742466,0 34.5377904488121,10.0613007988682,0 34.5380806493722,10.0613826520122,0 34.5381087067406,10.0612946273558,0 34.537816715775,10.0612134742466,0 </coordinates></LinearRing></outerBoundaryIs></Polygon></Placemark><Placemark><name /><description>BUILDING</description><styleUrl>#BUILDING_2</styleUrl><Polygon><outerBoundaryIs><LinearRing><coordinates>34.5379955229114,10.0622243794779,0 34.5382550546923,10.0623042852132,0 34.5382805787818,10.0622453357377,0 34.5380179151617,10.0621624906995,0 34.5379955229114,10.0622243794779,0 </coordinates></LinearRing></outerBoundaryIs></Polygon></Placemark><Placemark><name /><description>BUILDING</description><styleUrl>#BUILDING_2</styleUrl><Polygon><outerBoundaryIs><LinearRing><coordinates>34.538312599005,10.0619691970687,0 34.5382684103598,10.0622314938862,0 34.538337189516,10.0622452348209,0 34.5383830425932,10.0619820988509,0 34.538312599005,10.0619691970687,0 </coordinates></LinearRing></outerBoundaryIs></Polygon></Placemark><Placemark><name /><description>BUILDING</description><styleUrl>#BUILDING_2</styleUrl><Polygon><outerBoundaryIs><LinearRing><coordinates>34.53834015507,10.061781877956,0 34.5383142027482,10.0619607819934,0 34.5383884023358,10.0619706912618,0 34.5384210059402,10.0617927699901,0 34.53834015507,10.061781877956,0 </coordinates></LinearRing></outerBoundaryIs></Polygon></Placemark><Placemark><name /><description>BUILDING</description><styleUrl>#BUILDING_2</styleUrl><Polygon><outerBoundaryIs><LinearRing><coordinates>34.537740281634,10.0613645876636,0 34.5376092127516,10.0617764789782,0 34.5376817332644,10.0617988685907,0 34.5378202597541,10.0613870087175,0 34.537740281634,10.0613645876636,0 </coordinates></LinearRing></outerBoundaryIs></Polygon></Placemark><Placemark><name /><description>BUILDING</description><styleUrl>#BUILDING_2</styleUrl><Polygon><outerBoundaryIs><LinearRing><coordinates>34.5377496602274,10.0621489662741,0 34.5377387526862,10.0621822994985,0 34.5377709710055,10.0621916949251,0 34.5377810949322,10.0621575337926,0 34.5377496602274,10.0621489662741,0 </coordinates></LinearRing></outerBoundaryIs></Polygon></Placemark><Placemark><name /><description>BUILDING</description><styleUrl>#BUILDING_2</styleUrl><Polygon><outerBoundaryIs><LinearRing><coordinates>34.5374775993472,10.0620630767834,0 34.5377425329094,10.0621431817013,0 34.5377644410264,10.062079925188,0 34.5374956494047,10.0620007947974,0 34.5374775993472,10.0620630767834,0 </coordinates></LinearRing></outerBoundaryIs></Polygon></Placemark><Placemark><name /><description>BUILDING</description><styleUrl>#BUILDING_2</styleUrl><Polygon><outerBoundaryIs><LinearRing><coordinates>34.5371763946332,10.0619697443062,0 34.5374316696918,10.0620489368779,0 34.5374545498647,10.061987111646,0 34.5371905988663,10.0619108291593,0 34.5371763946332,10.0619697443062,0 </coordinates></LinearRing></outerBoundaryIs></Polygon></Placemark><Placemark><name /><description>BUILDING</description><styleUrl>#BUILDING_2</styleUrl><Polygon><outerBoundaryIs><LinearRing><coordinates>34.5370086627587,10.0616295860906,0 34.5370409053891,10.0616588608863,0 34.5370641818707,10.061637441518,0 34.5370324048694,10.0616045759997,0 34.5370086627587,10.0616295860906,0 </coordinates></LinearRing></outerBoundaryIs></Polygon></Placemark><Placemark><name /><description>BUILDING</description><styleUrl>#BUILDING_2</styleUrl><Polygon><outerBoundaryIs><LinearRing><coordinates>34.5371101498003,10.0615450005674,0 34.5370823240718,10.061581970233,0 34.5371215746178,10.0616128869455,0 34.537150374599,10.061577826831,0 34.5371101498003,10.0615450005674,0 </coordinates></LinearRing></outerBoundaryIs></Polygon></Placemark><Placemark><name /><description>BUILDING</description><styleUrl>#BUILDING_2</styleUrl><Polygon><outerBoundaryIs><LinearRing><coordinates>34.5370365987819,10.0614067527062,0 34.5370175078593,10.061453250383,0 34.5371650463478,10.0615157205853,0 34.5371865511623,10.0614692107838,0 34.5370365987819,10.0614067527062,0 </coordinates></LinearRing></outerBoundaryIs></Polygon></Placemark><Placemark><name /><description>BUILDING</description><styleUrl>#BUILDING_2</styleUrl><Polygon><outerBoundaryIs><LinearRing><coordinates>34.5370211890008,10.0612568795492,0 34.5369824802155,10.0613403087531,0 34.5372712611137,10.0614609710262,0 34.5373085152358,10.0613761127702,0 34.5370211890008,10.0612568795492,0 </coordinates></LinearRing></outerBoundaryIs></Polygon></Placemark><Placemark><name /><description>BUILDING</description><styleUrl>#BUILDING_2</styleUrl><Polygon><outerBoundaryIs><LinearRing><coordinates>34.5369418394045,10.0611737597109,0 34.5372323859954,10.0612988092462,0 34.5372682100751,10.0612179051471,0 34.5369792994582,10.0610932251334,0 34.5369418394045,10.0611737597109,0 </coordinates></LinearRing></outerBoundaryIs></Polygon></Placemark><Placemark><name /><description>BUILDING</description><styleUrl>#BUILDING_2</styleUrl><Polygon><outerBoundaryIs><LinearRing><coordinates>34.5372452176129,10.0608801060695,0 34.5372088506837,10.0609658652009,0 34.5375014529673,10.06107710882,0 34.5375396663204,10.060990811212,0 34.5372452176129,10.0608801060695,0 </coordinates></LinearRing></outerBoundaryIs></Polygon></Placemark><Placemark><name /><description>BUILDING</description><styleUrl>#BUILDING_2</styleUrl><Polygon><outerBoundaryIs><LinearRing><coordinates>34.5382359169583,10.0615222390582,0 34.5382374179251,10.0616097878768,0 34.5383847356293,10.061600131995,0 34.5383817851225,10.0615122309762,0 34.5382359169583,10.0615222390582,0 </coordinates></LinearRing></outerBoundaryIs></Polygon></Placemark><Placemark><name /><description>BUILDING</description><styleUrl>#BUILDING_2</styleUrl><Polygon><outerBoundaryIs><LinearRing><coordinates>34.5382124961375,10.0613932872719,0 34.5382191907162,10.0614817685345,0 34.5383779621143,10.0614695476947,0 34.5383751391817,10.0613829625197,0 34.5382124961375,10.0613932872719,0 </coordinates></LinearRing></outerBoundaryIs></Polygon></Placemark><Placemark><name /><description>BUILDING</description><styleUrl>#BUILDING_2</styleUrl><Polygon><outerBoundaryIs><LinearRing><coordinates>34.5385963082146,10.0615626004439,0 34.5387642594678,10.0615517725118,0 34.5387595744246,10.0614800267369,0 34.538590155022,10.0614865559407,0 34.5385963082146,10.0615626004439,0 </coordinates></LinearRing></outerBoundaryIs></Polygon></Placemark><Placemark><name /><description>BUILDING</description><styleUrl>#BUILDING_2</styleUrl><Polygon><outerBoundaryIs><LinearRing><coordinates>34.5382359169583,10.0615222390582,0 34.5382374179251,10.0616097878768,0 34.5383847356293,10.061600131995,0 34.5383817851225,10.0615122309762,0 34.5382359169583,10.0615222390582,0 </coordinates></LinearRing></outerBoundaryIs></Polygon></Placemark><Placemark><name /><description>BUILDING</description><styleUrl>#BUILDING_2</styleUrl><Polygon><outerBoundaryIs><LinearRing><coordinates>34.5382124961375,10.0613932872719,0 34.5382191907162,10.0614817685345,0 34.5383779621143,10.0614695476947,0 34.5383751391817,10.0613829625197,0 34.5382124961375,10.0613932872719,0 </coordinates></LinearRing></outerBoundaryIs></Polygon></Placemark><Placemark><name /><description>BUILDING</description><styleUrl>#BUILDING_2</styleUrl><Polygon><outerBoundaryIs><LinearRing><coordinates>34.5388946270176,10.0612969312973,0 34.5388921745542,10.0613907181022,0 34.5389153489302,10.0613910886103,0 34.5389192500996,10.0612972950682,0 34.5388946270176,10.0612969312973,0 </coordinates></LinearRing></outerBoundaryIs></Polygon></Placemark><Placemark><name /><description>BUILDING</description><styleUrl>#BUILDING_7</styleUrl><Polygon><outerBoundaryIs><LinearRing><coordinates>34.5385963082146,10.0615626004439,0 34.5387642594678,10.0615517725118,0 34.5387595744246,10.0614800267369,0 34.538590155022,10.0614865559407,0 34.5385963082146,10.0615626004439,0 </coordinates></LinearRing></outerBoundaryIs></Polygon></Placemark><Placemark><name /><description>Mixed</description><styleUrl>#Mixed_30</styleUrl><Polygon><outerBoundaryIs><LinearRing><coordinates>34.5392408874796,10.0597810162514,0 34.5390052395738,10.0597816032193,0 34.5389974618548,10.0598611075727,0 34.5389896841436,10.0599406137343,0 34.5389731760603,10.0602779942543,0 34.5389827006511,10.0610147564011,0 34.5390336058725,10.0616110512712,0 34.5390470626576,10.0617686745846,0 34.5390627855057,10.0619528511844,0 34.5390717376341,10.0619527742791,0 34.5391128573843,10.06195241844,0 34.5392192438177,10.0619514994738,0 34.539222997578,10.0617690170713,0 34.5392273587322,10.0615570195893,0 34.5392265803201,10.0613626262437,0 34.5392250555037,10.0609817416392,0 34.5392250742356,10.0609795327216,0 34.5392349976768,10.0604991793985,0 34.5392366587243,10.060418796642,0 34.5392380853211,10.0599257840896,0 34.5392381020228,10.0599243021153,0 34.5392408874796,10.0597810162514,0 </coordinates></LinearRing></outerBoundaryIs></Polygon></Placemark><Placemark><name /><description>Fence</description><styleUrl>#Fence_7</styleUrl><Polygon><outerBoundaryIs><LinearRing><coordinates>34.5390627855057,10.0619528511844,0 34.5390470626576,10.0617686745846,0 34.5390336058725,10.0616110512712,0 34.5389827006511,10.0610147564011,0 34.5389731760603,10.0602779942543,0 34.5389896841436,10.0599406137343,0 34.5389974618548,10.0598611075727,0 34.5390052395738,10.0597816032193,0 34.5378933014671,10.059784371184,0 34.5375484869034,10.0602477577314,0 34.5373092656515,10.0605692384841,0 34.5369373682441,10.0610690185159,0 34.5369322761606,10.0610750872996,0 34.5369265078241,10.0610805281294,0 34.5369201413449,10.0610852674065,0 34.5368137032435,10.0611552880323,0 34.537160917033,10.0620024427542,0 34.5373902539544,10.0620779159507,0 34.537444774168,10.0620963486161,0 34.5376187482246,10.0621586450805,0 34.537705038456,10.062189543804,0 34.5377065070313,10.0621900704253,0 34.5378126520452,10.0622377726357,0 34.5378157099128,10.062237345227,0 34.5378216442714,10.0622369125852,0 34.5378249849139,10.0622366692122,0 34.5378364212658,10.0622365898335,0 34.5378372778981,10.0622365840434,0 34.5378407473011,10.0622365597795,0 34.5378767221775,10.0622363093766,0 34.5378800284078,10.0622365055786,0 34.5378824295312,10.0622364889924,0 34.5378848549808,10.0622367932655,0 34.5378887041909,10.0622370222051,0 34.5379399270713,10.0622434431421,0 34.5379438993107,10.0622440295515,0 34.5379451041454,10.0622443458271,0 34.5379564518758,10.0622473237778,0 34.5379595676361,10.0622481411093,0 34.5380506431587,10.0622811973882,0 34.5382335951671,10.0623476759345,0 34.5383318146888,10.0623833552957,0 34.5385422146833,10.0619573482864,0 34.5390627855057,10.0619528511844,0 </coordinates></LinearRing></outerBoundaryIs></Polygon></Placemark><Placemark><name /><description>Service</description><styleUrl>#Service_170</styleUrl><Polygon><outerBoundaryIs><LinearRing><coordinates>34.5392192438177,10.0619514994738,0 34.5391128573843,10.06195241844,0 34.5390717376341,10.0619527742791,0 34.5390627855057,10.0619528511844,0 34.5385422146833,10.0619573482864,0 34.5383318146888,10.0623833552957,0 34.5387647892433,10.062540951723,0 34.5390382189183,10.0626413014169,0 34.5391195172293,10.0624539827385,0 34.5391726342508,10.0622820842801,0 34.5391878074714,10.0622072850623,0 34.5392169361138,10.062063688593,0 34.5392192438177,10.0619514994738,0 </coordinates></LinearRing></outerBoundaryIs></Polygon></Placemark></Folder><Folder><name>Hatch Fill Features</name></Folder></Document></kml>