<?xml version="1.0" encoding="utf-8"?><kml xmlns:gx="http://www.google.com/kml/ext/2.2" xmlns:kml="http://www.opengis.net/kml/2.2" xmlns:atom="http://www.w3.org/2005/Atom" xmlns="http://www.opengis.net/kml/2.2"><Document><Style id="point1"><IconStyle><Icon><href>kml_symbol_dot_0_t.png</href></Icon></IconStyle></Style><Style id="point2"><IconStyle><Icon><href>kml_symbol_dot_0.png</href></Icon></IconStyle></Style><Style id="CS_92"><LineStyle><color>bf00CC00</color><width>1</width></LineStyle><PolyStyle><color>bf00CC00</color><fill>0</fill><outline>1</outline></PolyStyle></Style><Style id="LS_6"><LineStyle><color>bfFF00FF</color><width>1</width></LineStyle><PolyStyle><color>bfFF00FF</color><fill>0</fill><outline>1</outline></PolyStyle></Style><Style id="Admin_24"><LineStyle><color>bf002699</color><width>1</width></LineStyle><PolyStyle><color>bf002699</color><fill>0</fill><outline>1</outline></PolyStyle></Style><Style id="Mixed_30"><LineStyle><color>bf007FFF</color><width>1</width></LineStyle><PolyStyle><color>bf007FFF</color><fill>0</fill><outline>1</outline></PolyStyle></Style><Style id="Residence_50"><LineStyle><color>bf00FFFF</color><width>1</width></LineStyle><PolyStyle><color>bf00FFFF</color><fill>0</fill><outline>1</outline></PolyStyle></Style><Style id="Service_170"><LineStyle><color>bfFF0000</color><width>1</width></LineStyle><PolyStyle><color>bfFF0000</color><fill>0</fill><outline>1</outline></PolyStyle></Style><Style id="BUILDING_2"><LineStyle><color>bf00FFFF</color><width>1</width></LineStyle><PolyStyle><color>bf00FFFF</color><fill>0</fill><outline>1</outline></PolyStyle></Style><Style id="survey Point_1"><LineStyle><color>bf0000FF</color><width>1</width></LineStyle><PolyStyle><color>bf0000FF</color><fill>0</fill><outline>1</outline></PolyStyle></Style><Style id="Fence_170"><LineStyle><color>bfFF0000</color><width>1</width></LineStyle><PolyStyle><color>bfFF0000</color><fill>0</fill><outline>1</outline></PolyStyle></Style><Style id="Recreational_90"><LineStyle><color>bf00FF00</color><width>1</width></LineStyle><PolyStyle><color>bf00FF00</color><fill>0</fill><outline>1</outline></PolyStyle></Style><Style id="Residence_50"><LineStyle><color>bf00FFFF</color><width>1</width></LineStyle><PolyStyle><color>bf00FFFF</color><fill>0</fill><outline>1</outline></PolyStyle></Style><Style id="Road width_130"><IconStyle><Icon /></IconStyle><LabelStyle><color>bfFFFF00</color></LabelStyle></Style><Style id="Detail Land Use Code_7"><IconStyle><Icon /></IconStyle><LabelStyle><color>bfFFFFFF</color></LabelStyle></Style><ScreenOverlay><name>Cadomation</name><Icon><href>cadomation_logo.jpg</href></Icon><overlayXY x="0" y="1" xunits="fraction" yunits="fraction" /><screenXY x="0.01" y="0.99" xunits="fraction" yunits="fraction" /></ScreenOverlay><StyleMap id="default"><Pair><key>normal</key><styleUrl>#default0</styleUrl></Pair><Pair><key>highlight</key><styleUrl>#h1</styleUrl></Pair></StyleMap><Style id="default0"><LabelStyle><color>ffffffff</color></LabelStyle><LineStyle><color>ffff5555</color></LineStyle><PolyStyle><fill>0</fill></PolyStyle></Style><Style id="h1"><LabelStyle><color>ffffff00</color></LabelStyle><LineStyle><color>ffff5500</color></LineStyle><PolyStyle><fill>1</fill><color>ffff5500</color></PolyStyle></Style><Folder><name>Point Features</name><Placemark><name /><styleUrl>#point2</styleUrl><Point><coordinates>34.5344601757235,10.054873844007,0</coordinates></Point></Placemark><Placemark><name /><styleUrl>#point2</styleUrl><Point><coordinates>34.5343017798253,10.0542238477265,0</coordinates></Point></Placemark><Placemark><name /><styleUrl>#point2</styleUrl><Point><coordinates>34.5343942364458,10.0546504615008,0</coordinates></Point></Placemark><Placemark><name /><styleUrl>#point2</styleUrl><Point><coordinates>34.533429078906,10.0544047278151,0</coordinates></Point></Placemark></Folder><Folder><name>Label Features</name><Placemark><name>10m</name><styleUrl>#Road width_130</styleUrl><Point><coordinates>34.5344601757235,10.054873844007,0</coordinates></Point></Placemark><Placemark><name>10m</name><styleUrl>#Road width_130</styleUrl><Point><coordinates>34.5327936802748,10.0552021791581,0</coordinates></Point></Placemark><Placemark><name>10m</name><styleUrl>#Road width_130</styleUrl><Point><coordinates>34.5345345393945,10.0541411919768,0</coordinates></Point></Placemark><Placemark><name>RE-21</name><styleUrl>#Detail Land Use Code_7</styleUrl><Point><coordinates>34.5343017798253,10.0542238477265,0</coordinates></Point></Placemark><Placemark><name>R-1</name><styleUrl>#Detail Land Use Code_7</styleUrl><Point><coordinates>34.5343942364458,10.0546504615008,0</coordinates></Point></Placemark></Folder><Folder><name>Line Features</name><Placemark><name /><description>CS</description><styleUrl>#CS_92</styleUrl><LineString><coordinates>34.5331782778531,10.0555924334775,0 34.5333841479717,10.0554053259143,0 34.5334621878385,10.0553359751393,0 </coordinates></LineString></Placemark><Placemark><name /><description>CS</description><styleUrl>#CS_92</styleUrl><LineString><coordinates>34.5334621878385,10.0553359751393,0 34.5335062103429,10.0553856495274,0 34.5336771675603,10.0555901226458,0 </coordinates></LineString></Placemark><Placemark><name /><description>CS</description><styleUrl>#CS_92</styleUrl><LineString><coordinates>34.5334621878385,10.0553359751393,0 34.5335888906883,10.0552233786059,0 34.5338350209424,10.0549885890428,0 34.534106496207,10.0547292590306,0 34.5343976880867,10.0544652290328,0 </coordinates></LineString></Placemark><Placemark><name /><description>CS</description><styleUrl>#CS_92</styleUrl><LineString><coordinates>34.5343976880867,10.0544652290328,0 34.5348878661187,10.0547030026507,0 </coordinates></LineString></Placemark><Placemark><name /><description>CS</description><styleUrl>#CS_92</styleUrl><LineString><coordinates>34.5324469963772,10.054190458459,0 34.5326401890683,10.0544084531525,0 34.5334621878385,10.0553359751393,0 </coordinates></LineString></Placemark><Placemark><name /><description>CS</description><styleUrl>#CS_92</styleUrl><LineString><coordinates>34.5334438806519,10.0534379553958,0 34.5336015942984,10.0535867226977,0 34.5343976880867,10.0544652290328,0 </coordinates></LineString></Placemark><Placemark><name /><description>LS</description><styleUrl>#LS_6</styleUrl><LineString><coordinates>34.5346490159284,10.0534323721648,0 34.5345763121556,10.0542903407496,0 34.5343976880867,10.0544652290328,0 </coordinates></LineString></Placemark><Placemark><name /><description>LS</description><styleUrl>#LS_6</styleUrl><LineString><coordinates>34.532676334442,10.0553291333303,0 34.533105821439,10.0549338613916,0 </coordinates></LineString></Placemark><Placemark><name /><description>LS</description><styleUrl>#LS_6</styleUrl><LineString><coordinates>34.5342158800061,10.0546300778623,0 34.5348909696736,10.0553605351297,0 </coordinates></LineString></Placemark><Placemark><name /><description>LS</description><styleUrl>#LS_6</styleUrl><LineString><coordinates>34.5326401890683,10.0544084531525,0 34.5335643046982,10.053551547686,0 34.5346467903458,10.0536661034114,0 34.5348830903985,10.0536911096302,0 </coordinates></LineString></Placemark><Placemark><name /><description>LS</description><styleUrl>#LS_6</styleUrl><LineString><coordinates>34.5348855047743,10.0542026877663,0 34.5345912013685,10.0541628762516,0 34.5340583826439,10.0540907991563,0 </coordinates></LineString></Placemark><Placemark><name /><description>Admin</description><styleUrl>#Admin_24</styleUrl><LineString><coordinates>34.5348833050726,10.0537365976879,0 34.5346871401561,10.0537158380748,0 34.534670915222,10.0537141212526,0 34.5346362379167,10.0541233433628,0 34.5346416466832,10.054124075066,0 34.534720724211,10.0541347707963,0 34.5347372456066,10.0541374428282,0 34.534797783316,10.054145566278,0 34.5348852906067,10.0541573092451,0 </coordinates></LineString></Placemark><Placemark><name /><description>Mixed</description><styleUrl>#Mixed_30</styleUrl><LineString><coordinates>34.5324513077646,10.0551053784511,0 34.5326666173793,10.0552654050249,0 34.5326732172209,10.0552703102237,0 34.5330255524633,10.0549460448917,0 34.5325887816306,10.0544532033108,0 34.5324474831696,10.0542937651073,0 </coordinates></LineString></Placemark><Placemark><name /><description>Mixed</description><styleUrl>#Mixed_30</styleUrl><LineString><coordinates>34.5324465096008,10.0540871540734,0 34.5326600596782,10.0543281196928,0 34.5330706122144,10.0539474282229,0 34.5332163583013,10.053812281019,0 34.5334811619549,10.0535667363862,0 34.5333451211658,10.0534384127409,0 </coordinates></LineString></Placemark><Placemark><name /><description>Residence</description><styleUrl>#Residence_50</styleUrl><LineString><coordinates>34.5335886512809,10.0555905327036,0 34.5334563251979,10.0554322643608,0 34.5334301108276,10.0554555600354,0 34.5334300899348,10.0554555791193,0 34.5332800309032,10.0555919622236,0 </coordinates></LineString></Placemark><Placemark><name /><description>Residence</description><styleUrl>#Residence_50</styleUrl><LineString><coordinates>34.533076529355,10.0555929046791,0 34.5333381869719,10.0553550953927,0 34.5333660883826,10.0553302964487,0 34.5330857775972,10.055014002179,0 34.5327115425955,10.055358168938,0 34.5327073341306,10.0553622218333,0 34.5327058337325,10.0553636455821,0 34.5324536189002,10.055595788722,0 </coordinates></LineString></Placemark><Placemark><name /><description>Residence</description><styleUrl>#Residence_50</styleUrl><LineString><coordinates>34.5339469733805,10.0555888726059,0 34.5341147439773,10.0554354245332,0 34.5341981570963,10.0553602775234,0 34.5342704847007,10.0552897270293,0 34.5343602388639,10.0551868836435,0 34.5345100963446,10.0550153555686,0 34.5342284398843,10.0547105992326,0 34.5341533383816,10.0547786951334,0 34.5341533093169,10.0547787223926,0 34.5338824861502,10.0550374300797,0 34.5336363386477,10.0552722360324,0 34.5336345682775,10.0552738662773,0 34.533558528654,10.0553419564776,0 34.5337656809318,10.0555897125779,0 </coordinates></LineString></Placemark><Placemark><name /><description>Residence</description><styleUrl>#Residence_50</styleUrl><LineString><coordinates>34.5335426386795,10.053437498028,0 34.5336114755791,10.0535024301028,0 34.5336218002528,10.0535121696998,0 34.5339968036347,10.0535518553069,0 34.5341146296926,10.0535643246522,0 34.5345878160254,10.053614399928,0 34.534600643782,10.0534630257228,0 34.5346032234024,10.0534325843956,0 </coordinates></LineString></Placemark><Placemark><name /><description>Service</description><styleUrl>#Service_170</styleUrl><LineString><coordinates>34.5348857202507,10.0542483433713,0 34.5347483495814,10.054229761015,0 34.5346524998217,10.0542167949607,0 34.5346512482724,10.0542166253567,0 34.5346461069785,10.0542159303884,0 34.5346313832641,10.0542139389816,0 34.5346311596087,10.0542139083731,0 34.5346285926087,10.0542135604198,0 34.5346282806693,10.0542172471766,0 34.534627094163,10.0542312479971,0 34.534626473673,10.0542385663419,0 34.5346257668112,10.0542469140085,0 34.5346244964822,10.0542619043564,0 34.5346243461009,10.054263675377,0 34.5346238379898,10.054269675856,0 34.5346232684908,10.0542763936096,0 34.5346217052,10.0542948391643,0 34.5346214278315,10.0542981188938,0 34.5346212377257,10.0543003647767,0 34.5346203562659,10.0543107647665,0 34.534619778716,10.0543113298241,0 34.5346104126301,10.0543204997148,0 34.534608881587,10.054321999561,0 34.5346083694261,10.0543225019292,0 34.5344926527423,10.0544357982844,0 34.5346101939601,10.0544928152366,0 34.5346685372969,10.0545207696236,0 34.5348441693712,10.0546059644468,0 34.5348506816125,10.0546091231901,0 34.5348531550181,10.0546103223791,0 34.5348559785583,10.0546010444769,0 34.5348864267685,10.0543980403744,0 </coordinates></LineString></Placemark></Folder><Folder><name>Area Features</name><Placemark><name /><description>BUILDING</description><styleUrl>#BUILDING_2</styleUrl><Polygon><outerBoundaryIs><LinearRing><coordinates>34.53329921371,10.0549921351507,0 34.5333694109599,10.0550723747963,0 34.5334175343142,10.0550409392452,0 34.5333444038261,10.0549588135673,0 34.53329921371,10.0549921351507,0 </coordinates></LinearRing></outerBoundaryIs></Polygon></Placemark><Placemark><name /><description>survey Point</description><styleUrl>#survey Point_1</styleUrl><Polygon><outerBoundaryIs><LinearRing><coordinates>34.5348818642517,10.053431292904,0 34.5324434724803,10.0534425868223,0 34.5324536189002,10.055595788722,0 34.5348920268009,10.055584492336,0 34.5348818642517,10.053431292904,0 </coordinates></LinearRing></outerBoundaryIs></Polygon></Placemark><Placemark><name /><description>Fence</description><styleUrl>#Fence_170</styleUrl><Polygon><outerBoundaryIs><LinearRing><coordinates>34.5335216009601,10.053623129612,0 34.5333620024732,10.0537674178844,0 34.532708831486,10.0543932522236,0 34.5329387597831,10.0546425991718,0 34.533157228868,10.0548891129618,0 34.5334206109436,10.0551863059329,0 34.5334934801567,10.0551201017102,0 34.5337437049634,10.0548724093524,0 34.533996719378,10.0546378181226,0 34.5340491226836,10.0545864672605,0 34.5341082700743,10.0545283742791,0 34.5342186671494,10.0544138630897,0 34.5339794801153,10.0541407407811,0 34.5335216009601,10.053623129612,0 </coordinates></LinearRing></outerBoundaryIs></Polygon></Placemark><Placemark><name /><description>BUILDING</description><styleUrl>#BUILDING_2</styleUrl><Polygon><outerBoundaryIs><LinearRing><coordinates>34.5341449682161,10.0544230879796,0 34.5341801679973,10.0544537969831,0 34.5342068075668,10.0544261646427,0 34.5341770646191,10.0543938210469,0 34.5341449682161,10.0544230879796,0 </coordinates></LinearRing></outerBoundaryIs></Polygon></Placemark><Placemark><name /><description>BUILDING</description><styleUrl>#BUILDING_2</styleUrl><Polygon><outerBoundaryIs><LinearRing><coordinates>34.5340556009053,10.0542354140177,0 34.533986626895,10.054285918173,0 34.5340812663884,10.0544000454498,0 34.5341476445554,10.0543487827559,0 34.5340556009053,10.0542354140177,0 </coordinates></LinearRing></outerBoundaryIs></Polygon></Placemark><Placemark><name /><description>BUILDING</description><styleUrl>#BUILDING_2</styleUrl><Polygon><outerBoundaryIs><LinearRing><coordinates>34.53370930379,10.0547942259263,0 34.5333873644347,10.0549825027254,0 34.5334244444572,10.0550370322694,0 34.5337433914249,10.0548541516929,0 34.53370930379,10.0547942259263,0 </coordinates></LinearRing></outerBoundaryIs></Polygon></Placemark><Placemark><name /><description>BUILDING</description><styleUrl>#BUILDING_2</styleUrl><Polygon><outerBoundaryIs><LinearRing><coordinates>34.5333373744954,10.0548920485813,0 34.53336591387,10.0549450614969,0 34.533461857625,10.0548981573458,0 34.5334346355113,10.054844485594,0 34.5333373744954,10.0548920485813,0 </coordinates></LinearRing></outerBoundaryIs></Polygon></Placemark><Placemark><name /><description>BUILDING</description><styleUrl>#BUILDING_2</styleUrl><Polygon><outerBoundaryIs><LinearRing><coordinates>34.5334197235273,10.0548108100087,0 34.5334633784172,10.0548781751732,0 34.5335697651124,10.054809923181,0 34.5335291227825,10.0547448591658,0 34.5334197235273,10.0548108100087,0 </coordinates></LinearRing></outerBoundaryIs></Polygon></Placemark><Placemark><name /><description>BUILDING</description><styleUrl>#BUILDING_2</styleUrl><Polygon><outerBoundaryIs><LinearRing><coordinates>34.5332359783201,10.0547722905892,0 34.5332792569732,10.0548427458571,0 34.5335010086726,10.0546788598999,0 34.5334562762152,10.0546111284,0 34.5332359783201,10.0547722905892,0 </coordinates></LinearRing></outerBoundaryIs></Polygon></Placemark><Placemark><name /><description>BUILDING</description><styleUrl>#BUILDING_2</styleUrl><Polygon><outerBoundaryIs><LinearRing><coordinates>34.5331410106357,10.0548216312066,0 34.5331730521814,10.0548597581883,0 34.5332259371589,10.0548135824895,0 34.5331938956131,10.0547754555132,0 34.5331410106357,10.0548216312066,0 </coordinates></LinearRing></outerBoundaryIs></Polygon></Placemark><Placemark><name /><description>BUILDING</description><styleUrl>#BUILDING_2</styleUrl><Polygon><outerBoundaryIs><LinearRing><coordinates>34.5337631004771,10.054588456046,0 34.5338093110136,10.0546624011949,0 34.5340131173218,10.0545420539116,0 34.5339647064236,10.0544663460596,0 34.5337631004771,10.054588456046,0 </coordinates></LinearRing></outerBoundaryIs></Polygon></Placemark><Placemark><name /><description>BUILDING</description><styleUrl>#BUILDING_2</styleUrl><Polygon><outerBoundaryIs><LinearRing><coordinates>34.5337359235904,10.0544558130489,0 34.5338430296944,10.0543907262635,0 34.5338113861068,10.0543346555695,0 34.5337042800116,10.0543997423429,0 34.5337359235904,10.0544558130489,0 </coordinates></LinearRing></outerBoundaryIs></Polygon></Placemark><Placemark><name /><description>Recreational</description><styleUrl>#Recreational_90</styleUrl><Polygon><outerBoundaryIs><LinearRing><coordinates>34.5345182706874,10.0542836224946,0 34.5345322689625,10.0542699167217,0 34.5345348069733,10.0542399532165,0 34.5345380813339,10.0542013173183,0 34.5345235438425,10.0541993503596,0 34.5345204985019,10.0541989386195,0 34.5344795342799,10.054193397975,0 34.534210317339,10.0541569796075,0 34.534415903885,10.0543838480568,0 34.5344743752112,10.0543266003164,0 34.5344963229486,10.0543051109539,0 34.5345036104083,10.0542979759934,0 34.5345182706874,10.0542836224946,0 </coordinates></LinearRing></outerBoundaryIs></Polygon></Placemark><Placemark><name /><description>Residence</description><styleUrl>#Residence_50</styleUrl><Polygon><outerBoundaryIs><LinearRing><coordinates>34.53460763188,10.0546425650206,0 34.5344094794832,10.054546446531,0 34.5342957481445,10.0546495682887,0 34.5343651847887,10.0547246669939,0 34.5344735587979,10.0548418776877,0 34.5344737191437,10.0548416382492,0 34.53460763188,10.0546425650206,0 </coordinates></LinearRing></outerBoundaryIs></Polygon></Placemark><Placemark><name /><description>Residence</description><styleUrl>#Residence_50</styleUrl><Polygon><outerBoundaryIs><LinearRing><coordinates>34.5345801793564,10.0537045192985,0 34.5337175808225,10.0536132340063,0 34.5341092872273,10.0540454905633,0 34.5341160725748,10.0540529780287,0 34.5343336500926,10.0540824107344,0 34.5345457266675,10.0541111002597,0 34.5345629530196,10.0539078111353,0 34.5345753443573,10.0537615835606,0 34.534575698661,10.0537574011337,0 34.5345801793564,10.0537045192985,0 </coordinates></LinearRing></outerBoundaryIs></Polygon></Placemark></Folder><Folder><name>Hatch Fill Features</name></Folder></Document></kml>