<?xml version="1.0" encoding="utf-8"?><kml xmlns:gx="http://www.google.com/kml/ext/2.2" xmlns:kml="http://www.opengis.net/kml/2.2" xmlns:atom="http://www.w3.org/2005/Atom" xmlns="http://www.opengis.net/kml/2.2"><Document><Style id="point1"><IconStyle><Icon><href>kml_symbol_dot_0_t.png</href></Icon></IconStyle></Style><Style id="point2"><IconStyle><Icon><href>kml_symbol_dot_0.png</href></Icon></IconStyle></Style><Style id="BUILDING_2"><LineStyle><color>bf00FFFF</color><width>1</width></LineStyle><PolyStyle><color>bf00FFFF</color><fill>0</fill><outline>1</outline></PolyStyle></Style><Style id="kg boundary_3"><LineStyle><color>bf00FF00</color><width>1</width></LineStyle><PolyStyle><color>bf00FF00</color><fill>0</fill><outline>1</outline></PolyStyle></Style><Style id="SAS_5"><LineStyle><color>bfFF0000</color><width>1</width></LineStyle><PolyStyle><color>bfFF0000</color><fill>0</fill><outline>1</outline></PolyStyle></Style><Style id="CS_92"><LineStyle><color>bf00CC00</color><width>1</width></LineStyle><PolyStyle><color>bf00CC00</color><fill>0</fill><outline>1</outline></PolyStyle></Style><Style id="LS_6"><LineStyle><color>bfFF00FF</color><width>1</width></LineStyle><PolyStyle><color>bfFF00FF</color><fill>0</fill><outline>1</outline></PolyStyle></Style><Style id="Admin_24"><LineStyle><color>bf002699</color><width>1</width></LineStyle><PolyStyle><color>bf002699</color><fill>0</fill><outline>1</outline></PolyStyle></Style><Style id="Commerce_10"><LineStyle><color>bf0000FF</color><width>1</width></LineStyle><PolyStyle><color>bf0000FF</color><fill>0</fill><outline>1</outline></PolyStyle></Style><Style id="Mixed_30"><LineStyle><color>bf007FFF</color><width>1</width></LineStyle><PolyStyle><color>bf007FFF</color><fill>0</fill><outline>1</outline></PolyStyle></Style><Style id="Recreational_90"><LineStyle><color>bf00FF00</color><width>1</width></LineStyle><PolyStyle><color>bf00FF00</color><fill>0</fill><outline>1</outline></PolyStyle></Style><Style id="Residence_50"><LineStyle><color>bf00FFFF</color><width>1</width></LineStyle><PolyStyle><color>bf00FFFF</color><fill>0</fill><outline>1</outline></PolyStyle></Style><Style id="Service_170"><LineStyle><color>bfFF0000</color><width>1</width></LineStyle><PolyStyle><color>bfFF0000</color><fill>0</fill><outline>1</outline></PolyStyle></Style><Style id="0_7"><LineStyle><color>bfFFFFFF</color><width>1</width></LineStyle><PolyStyle><color>bfFFFFFF</color><fill>0</fill><outline>1</outline></PolyStyle></Style><Style id="BUILDING_2"><LineStyle><color>bf00FFFF</color><width>1</width></LineStyle><PolyStyle><color>bf00FFFF</color><fill>0</fill><outline>1</outline></PolyStyle></Style><Style id="kg boundary_3"><LineStyle><color>bf00FF00</color><width>1</width></LineStyle><PolyStyle><color>bf00FF00</color><fill>0</fill><outline>1</outline></PolyStyle></Style><Style id="Mixed_30"><LineStyle><color>bf007FFF</color><width>1</width></LineStyle><PolyStyle><color>bf007FFF</color><fill>0</fill><outline>1</outline></PolyStyle></Style><Style id="Fence_170"><LineStyle><color>bfFF0000</color><width>1</width></LineStyle><PolyStyle><color>bfFF0000</color><fill>0</fill><outline>1</outline></PolyStyle></Style><Style id="Road width_130"><IconStyle><Icon /></IconStyle><LabelStyle><color>bfFFFF00</color></LabelStyle></Style><Style id="Detail Land Use Code_7"><IconStyle><Icon /></IconStyle><LabelStyle><color>bfFFFFFF</color></LabelStyle></Style><ScreenOverlay><name>Cadomation</name><Icon><href>cadomation_logo.jpg</href></Icon><overlayXY x="0" y="1" xunits="fraction" yunits="fraction" /><screenXY x="0.01" y="0.99" xunits="fraction" yunits="fraction" /></ScreenOverlay><StyleMap id="default"><Pair><key>normal</key><styleUrl>#default0</styleUrl></Pair><Pair><key>highlight</key><styleUrl>#h1</styleUrl></Pair></StyleMap><Style id="default0"><LabelStyle><color>ffffffff</color></LabelStyle><LineStyle><color>ffff5555</color></LineStyle><PolyStyle><fill>0</fill></PolyStyle></Style><Style id="h1"><LabelStyle><color>ffffff00</color></LabelStyle><LineStyle><color>ffff5500</color></LineStyle><PolyStyle><fill>1</fill><color>ffff5500</color></PolyStyle></Style><Folder><name>Point Features</name></Folder><Folder><name>Label Features</name><Placemark><name>24m</name><styleUrl>#Road width_130</styleUrl><Point><coordinates>34.5520010911002,10.0647820012372,0</coordinates></Point></Placemark><Placemark><name>15m</name><styleUrl>#Road width_130</styleUrl><Point><coordinates>34.5514272641095,10.0637219636219,0</coordinates></Point></Placemark><Placemark><name>10m</name><styleUrl>#Road width_130</styleUrl><Point><coordinates>34.5527819829426,10.0627252642157,0</coordinates></Point></Placemark><Placemark><name>10m</name><styleUrl>#Road width_130</styleUrl><Point><coordinates>34.5513515214663,10.0644634173458,0</coordinates></Point></Placemark><Placemark><name>10m</name><styleUrl>#Road width_130</styleUrl><Point><coordinates>34.5528255685549,10.0623787528323,0</coordinates></Point></Placemark><Placemark><name>10m</name><styleUrl>#Road width_130</styleUrl><Point><coordinates>34.5525991160701,10.0631102922043,0</coordinates></Point></Placemark><Placemark><name>10m</name><styleUrl>#Road width_130</styleUrl><Point><coordinates>34.5524696703807,10.0625031613223,0</coordinates></Point></Placemark><Placemark><name>15m</name><styleUrl>#Road width_130</styleUrl><Point><coordinates>34.5532576515722,10.064985546722,0</coordinates></Point></Placemark><Placemark><name>10m</name><styleUrl>#Road width_130</styleUrl><Point><coordinates>34.5511920628883,10.0627513481656,0</coordinates></Point></Placemark><Placemark><name>20m</name><styleUrl>#Road width_130</styleUrl><Point><coordinates>34.5524058468301,10.064386920185,0</coordinates></Point></Placemark><Placemark><name>R-2</name><styleUrl>#Detail Land Use Code_7</styleUrl><Point><coordinates>34.5523744271127,10.0648939707473,0</coordinates></Point></Placemark><Placemark><name>CO-21</name><styleUrl>#Detail Land Use Code_7</styleUrl><Point><coordinates>34.5522500211564,10.0621060678238,0</coordinates></Point></Placemark><Placemark><name>R-1</name><styleUrl>#Detail Land Use Code_7</styleUrl><Point><coordinates>34.5527257567229,10.064764555655,0</coordinates></Point></Placemark><Placemark><name>R-2</name><styleUrl>#Detail Land Use Code_7</styleUrl><Point><coordinates>34.5523115576683,10.0630957406819,0</coordinates></Point></Placemark><Placemark><name>S-12</name><styleUrl>#Detail Land Use Code_7</styleUrl><Point><coordinates>34.5516828796774,10.0633689354646,0</coordinates></Point></Placemark></Folder><Folder><name>Line Features</name><Placemark><name /><description>BUILDING</description><styleUrl>#BUILDING_2</styleUrl><LineString><coordinates>34.5523270575453,10.0624735402878,0 34.5522459179389,10.0625458515618,0 34.5523291011769,10.062628397342,0 34.5524252911361,10.0625442475466,0 34.5523270575453,10.0624735402878,0 </coordinates></LineString></Placemark><Placemark><name /><description>BUILDING</description><styleUrl>#BUILDING_2</styleUrl><LineString><coordinates>34.551478864312,10.0638455033833,0 34.5515624052519,10.0638384203123,0 34.551555539759,10.0637588891364,0 34.5514807199364,10.0637637644827,0 34.551478864312,10.0638455033833,0 </coordinates></LineString></Placemark><Placemark><name /><description>BUILDING</description><styleUrl>#BUILDING_2</styleUrl><LineString><coordinates>34.5514750397687,10.0640139882194,0 34.5515529715302,10.0640166847851,0 34.5515542707881,10.0639037611972,0 34.5514776444552,10.0638992396531,0 34.5514750397687,10.0640139882194,0 </coordinates></LineString></Placemark><Placemark><name /><description>BUILDING</description><styleUrl>#BUILDING_2</styleUrl><LineString><coordinates>34.5514869224496,10.0634915995805,0 34.5515428284114,10.063493893626,0 34.551556314657,10.063053136991,0 34.5514968607353,10.0630513502344,0 34.5514869224496,10.0634915995805,0 </coordinates></LineString></Placemark><Placemark><name /><description>BUILDING</description><styleUrl>#BUILDING_2</styleUrl><LineString><coordinates>34.5517835568913,10.0631918153528,0 34.5519125860248,10.0632132353946,0 34.5519238842387,10.0631463905485,0 34.5517922707588,10.0631286748468,0 34.5517835568913,10.0631918153528,0 </coordinates></LineString></Placemark><Placemark><name /><description>BUILDING</description><styleUrl>#BUILDING_2</styleUrl><LineString><coordinates>34.5519613671672,10.0628853615705,0 34.5519317910314,10.0631007064178,0 34.55201123872,10.0631114235431,0 34.5520409994815,10.0628947340354,0 34.5519613671672,10.0628853615705,0 </coordinates></LineString></Placemark><Placemark><name /><description>BUILDING</description><styleUrl>#BUILDING_2</styleUrl><LineString><coordinates>34.5521537529903,10.0631988192002,0 34.5521978884056,10.0630034276552,0 34.5520932505917,10.0629802130704,0 34.5520505026551,10.0631720686203,0 34.5521537529903,10.0631988192002,0 </coordinates></LineString></Placemark><Placemark><name /><description>kg boundary</description><styleUrl>#kg boundary_3</styleUrl><LineString><coordinates>34.5526089131671,10.0640017985857,0 34.5524209883149,10.0638812383253,0 34.5525430951483,10.0636712070141,0 34.5527559853324,10.0638138877389,0 </coordinates></LineString></Placemark><Placemark><name /><description>SAS</description><styleUrl>#SAS_5</styleUrl><LineString><coordinates>34.5511809846085,10.064324411177,0 34.5513702799421,10.0643741571857,0 34.5515533396089,10.0644444255787,0 34.5517317975822,10.0645847791806,0 34.5519240479167,10.0647365659167,0 34.5520641899054,10.0648520769541,0 34.552140404169,10.0649148957406,0 </coordinates></LineString></Placemark><Placemark><name /><description>SAS</description><styleUrl>#SAS_5</styleUrl><LineString><coordinates>34.552836910039,10.0620606850377,0 34.5526793129799,10.0619309629521,0 </coordinates></LineString></Placemark><Placemark><name /><description>CS</description><styleUrl>#CS_92</styleUrl><LineString><coordinates>34.5528454464504,10.0638468900978,0 34.5527601212812,10.0639569577006,0 34.5525343959424,10.0642429690619,0 34.5523466862134,10.0644865902691,0 34.5521892943027,10.0646993075348,0 34.5520641899054,10.0648520769541,0 </coordinates></LineString></Placemark><Placemark><name /><description>CS</description><styleUrl>#CS_92</styleUrl><LineString><coordinates>34.5511709293692,10.0622182063668,0 34.5513217880656,10.0622163700521,0 34.5514186682781,10.0622084909558,0 34.5514389947907,10.0622066542615,0 </coordinates></LineString></Placemark><Placemark><name /><description>CS</description><styleUrl>#CS_92</styleUrl><LineString><coordinates>34.5514389947907,10.0622066542615,0 34.5514430028878,10.0623001644096,0 34.5514367888519,10.0626123186495,0 34.5514273439462,10.0631081924555,0 34.5514171787901,10.0635479757747,0 34.5514057239761,10.0640525857644,0 34.5513966066858,10.064254789178,0 34.55139024415,10.0643818201824,0 </coordinates></LineString></Placemark><Placemark><name /><description>CS</description><styleUrl>#CS_92</styleUrl><LineString><coordinates>34.5514389947907,10.0622066542615,0 34.5515359291739,10.0621978942436,0 34.5516038594874,10.0621688691703,0 34.5516918811681,10.0621009956316,0 34.551852857523,10.0619348404458,0 </coordinates></LineString></Placemark><Placemark><name /><description>LS</description><styleUrl>#LS_6</styleUrl><LineString><coordinates>34.5528453140291,10.0638191840985,0 34.5525693212795,10.0636342105091,0 34.552651676368,10.0626504365881,0 </coordinates></LineString></Placemark><Placemark><name /><description>LS</description><styleUrl>#LS_6</styleUrl><LineString><coordinates>34.552279991785,10.0645767287996,0 34.5526010937087,10.064912733557,0 </coordinates></LineString></Placemark><Placemark><name /><description>LS</description><styleUrl>#LS_6</styleUrl><LineString><coordinates>34.55139024415,10.0643818201824,0 34.551231423055,10.0649191600379,0 </coordinates></LineString></Placemark><Placemark><name /><description>LS</description><styleUrl>#LS_6</styleUrl><LineString><coordinates>34.5525343959424,10.0642429690619,0 34.5525680075141,10.0642705078595,0 34.5527483699485,10.0644517552688,0 34.5528487976924,10.0645480309758,0 </coordinates></LineString></Placemark><Placemark><name /><description>LS</description><styleUrl>#LS_6</styleUrl><LineString><coordinates>34.551409696225,10.063877591308,0 34.551178795674,10.0638659489693,0 </coordinates></LineString></Placemark><Placemark><name /><description>LS</description><styleUrl>#LS_6</styleUrl><LineString><coordinates>34.5511766909653,10.0634251067383,0 34.5514198570206,10.0634321281965,0 </coordinates></LineString></Placemark><Placemark><name /><description>LS</description><styleUrl>#LS_6</styleUrl><LineString><coordinates>34.5514339155953,10.0627631827467,0 34.5513770653422,10.0627674158149,0 34.5511735397107,10.0627650220089,0 </coordinates></LineString></Placemark><Placemark><name /><description>LS</description><styleUrl>#LS_6</styleUrl><LineString><coordinates>34.5526320677981,10.0626364194903,0 34.5527096281228,10.0626911565583,0 34.5527983278991,10.062753756171,0 34.5528403645043,10.0627835562946,0 </coordinates></LineString></Placemark><Placemark><name /><description>LS</description><styleUrl>#LS_6</styleUrl><LineString><coordinates>34.5517761650142,10.0620139998319,0 34.551881796898,10.062087696423,0 34.5520987217945,10.0622496349723,0 34.5523540372621,10.0624370880061,0 34.5525757290432,10.0625966593651,0 34.5526320677981,10.0626364194903,0 </coordinates></LineString></Placemark><Placemark><name /><description>LS</description><styleUrl>#LS_6</styleUrl><LineString><coordinates>34.5528384597322,10.0623849760395,0 34.5527484673817,10.0624953976756,0 34.5526614176249,10.062601487679,0 34.5526320677981,10.0626364194903,0 </coordinates></LineString></Placemark><Placemark><name /><description>Admin</description><styleUrl>#Admin_24</styleUrl><LineString><coordinates>34.5511838254679,10.0649193832633,0 34.55129699371,10.0645365004858,0 34.5513160164516,10.064472142166,0 34.5511815212155,10.064436797674,0 </coordinates></LineString></Placemark><Placemark><name /><description>Admin</description><styleUrl>#Admin_24</styleUrl><LineString><coordinates>34.5511733239025,10.0627198155765,0 34.5513662643082,10.0627220803572,0 34.5513683797079,10.0626110110885,0 34.5513745517332,10.0623009356593,0 34.5513736626309,10.0622801897747,0 34.5513273838392,10.0622839537289,0 34.5513226281392,10.0622841758438,0 34.5511712530768,10.0622860184845,0 </coordinates></LineString></Placemark><Placemark><name /><description>Commerce</description><styleUrl>#Commerce_10</styleUrl><LineString><coordinates>34.5511804550766,10.0642135051729,0 34.551188948182,10.0642142584296,0 34.551328291498,10.0642508772903,0 34.5513373353869,10.064050297151,0 34.5513403083149,10.0639193589689,0 34.551179011825,10.0639112217771,0 </coordinates></LineString></Placemark><Placemark><name /><description>Commerce</description><styleUrl>#Commerce_10</styleUrl><LineString><coordinates>34.5528388015522,10.0624565043048,0 34.5527839059733,10.0625238618804,0 34.5526985741291,10.06262785888,0 34.5527323143462,10.0626518094495,0 34.5527360552175,10.0626543786399,0 34.5527388197509,10.0626563394049,0 34.5528248269752,10.0627169607299,0 34.5528400979822,10.0627277866101,0 </coordinates></LineString></Placemark><Placemark><name /><description>Commerce</description><styleUrl>#Commerce_10</styleUrl><LineString><coordinates>34.5528377558358,10.062237679047,0 34.5524663468592,10.0619319623259,0 </coordinates></LineString></Placemark><Placemark><name /><description>Commerce</description><styleUrl>#Commerce_10</styleUrl><LineString><coordinates>34.551946222463,10.0619344025075,0 34.5519110197685,10.0619726827366,0 34.5519098034308,10.0619739705148,0 34.551864723348,10.0620205011407,0 34.5519086485235,10.06205116069,0 34.5521260182982,10.0622134162984,0 34.5523810169774,10.0624006366272,0 34.5523810499406,10.0624006617885,0 34.5526023352417,10.0625599402889,0 34.5526023617844,10.0625599582472,0 34.5526240767275,10.0625752837002,0 34.5526261704231,10.0625727920066,0 34.5526261949166,10.0625727629591,0 34.552712994341,10.0624669779306,0 34.5527130297127,10.0624669343658,0 34.5528381179258,10.0623134501057,0 </coordinates></LineString></Placemark><Placemark><name /><description>Mixed</description><styleUrl>#Mixed_30</styleUrl><LineString><coordinates>34.5525385469891,10.0649130271491,0 34.5523163369283,10.0646805037381,0 34.5522628640603,10.0647527731577,0 34.5522601311236,10.0647562832017,0 34.5522033299139,10.0648256460501,0 34.5523106420518,10.064914096827,0 </coordinates></LineString></Placemark><Placemark><name /><description>Mixed</description><styleUrl>#Mixed_30</styleUrl><LineString><coordinates>34.5528461514153,10.0639943858715,0 34.5528322240255,10.0640123513959,0 34.5526300715077,10.0642684968691,0 34.5527804693411,10.0644196323455,0 34.5528484956885,10.0644848483682,0 </coordinates></LineString></Placemark><Placemark><name /><description>Mixed</description><styleUrl>#Mixed_30</styleUrl><LineString><coordinates>34.5511785795152,10.0638206743159,0 34.551342361669,10.0638289324558,0 34.551348774733,10.0635464376583,0 34.5513504177538,10.0634753499473,0 34.5511769069159,10.0634703396581,0 </coordinates></LineString></Placemark><Placemark><name /><description>Mixed</description><styleUrl>#Mixed_30</styleUrl><LineString><coordinates>34.55284063104,10.0628393285183,0 34.5527718288304,10.0627905543232,0 34.5527366438487,10.0627657217706,0 34.5526905217582,10.06273317126,0 34.5526516330791,10.0631977179972,0 34.5526405283054,10.0633303687548,0 34.5526321145324,10.0634308818409,0 34.552627376415,10.063487478003,0 34.5526181703188,10.0635974448917,0 34.5526169871059,10.0636115830763,0 34.5528116678543,10.0637420599722,0 34.5528447415064,10.0636993964355,0 </coordinates></LineString></Placemark><Placemark><name /><description>Mixed</description><styleUrl>#Mixed_30</styleUrl><LineString><coordinates>34.5511764750247,10.0633798757069,0 34.5513525068687,10.0633849585265,0 34.5513565452087,10.0632102241441,0 34.5511756383469,10.0632046226819,0 </coordinates></LineString></Placemark><Placemark><name /><description>Recreational</description><styleUrl>#Recreational_90</styleUrl><LineString><coordinates>34.5519701656292,10.0649156945696,0 34.5518549307898,10.0648207131568,0 34.5516636630412,10.0646697020484,0 34.5514983030273,10.0645396493435,0 34.5514020473903,10.0645027010027,0 34.5513470791959,10.0646886767449,0 34.5512790211795,10.0649189368031,0 </coordinates></LineString></Placemark><Placemark><name /><description>Recreational</description><styleUrl>#Recreational_90</styleUrl><LineString><coordinates>34.5511756383469,10.0632046226819,0 34.5513565452087,10.0632102241441,0 34.5513589353849,10.0631068378896,0 34.5513589360037,10.0631067764051,0 34.5513645419555,10.0628124791018,0 34.5511737555527,10.0628102352944,0 </coordinates></LineString></Placemark><Placemark><name /><description>Residence</description><styleUrl>#Residence_50</styleUrl><LineString><coordinates>34.552849099701,10.0646112141543,0 34.5527162741815,10.0644838745562,0 34.5525738417004,10.0643407521372,0 34.552419727477,10.0645407708044,0 34.5523711694618,10.0646063970458,0 34.5526636381506,10.0649124399637,0 </coordinates></LineString></Placemark><Placemark><name /><description>Service</description><styleUrl>#Service_170</styleUrl><LineString><coordinates>34.5511706056741,10.0621503963637,0 34.5513185661143,10.0621485953197,0 34.5514127305165,10.0621409369149,0 34.5514127642581,10.0621409340443,0 34.5514267827981,10.0621398005164,0 34.551432790248,10.0621392108738,0 34.5514386595011,10.0621387204306,0 34.5515188551295,10.0621313472063,0 34.5515687430977,10.0621100313785,0 34.5516459563558,10.0620504922867,0 34.551726810421,10.0619670360246,0 34.5517575694129,10.0619352873777,0 </coordinates></LineString></Placemark></Folder><Folder><name>Area Features</name><Placemark><name /><description>0</description><styleUrl>#0_7</styleUrl><Polygon><outerBoundaryIs><LinearRing><coordinates>34.5528362866289,10.0619302262432,0 34.5511695920148,10.0619380445743,0 34.5511838254679,10.0649193832633,0 34.5528505353606,10.0649115625688,0 34.5528362866289,10.0619302262432,0 </coordinates></LinearRing></outerBoundaryIs></Polygon></Placemark><Placemark><name /><description>BUILDING</description><styleUrl>#BUILDING_2</styleUrl><Polygon><outerBoundaryIs><LinearRing><coordinates>34.5520560071071,10.0622743448937,0 34.5519792790036,10.0624654134971,0 34.5520476702599,10.0624949221305,0 34.5521206814905,10.0623220187681,0 34.5520560071071,10.0622743448937,0 </coordinates></LinearRing></outerBoundaryIs></Polygon></Placemark><Placemark><name /><description>BUILDING</description><styleUrl>#BUILDING_2</styleUrl><Polygon><outerBoundaryIs><LinearRing><coordinates>34.5514809045993,10.063755630224,0 34.5515120289335,10.0637565296275,0 34.5515147069817,10.0635931046088,0 34.5514846094737,10.063592433518,0 34.5514809045993,10.063755630224,0 </coordinates></LinearRing></outerBoundaryIs></Polygon></Placemark><Placemark><name /><description>kg boundary</description><styleUrl>#kg boundary_3</styleUrl><Polygon><outerBoundaryIs><LinearRing><coordinates>34.5526089131671,10.0640017985857,0 34.5527559852157,10.0638138876607,0 34.5525430951483,10.0636712070141,0 34.5524209883149,10.0638812383253,0 34.5526089131671,10.0640017985857,0 </coordinates></LinearRing></outerBoundaryIs></Polygon></Placemark><Placemark><name /><description>BUILDING</description><styleUrl>#BUILDING_2</styleUrl><Polygon><outerBoundaryIs><LinearRing><coordinates>34.5519488843719,10.0634819451592,0 34.5519725284729,10.0632775389454,0 34.5519116491442,10.0632668202445,0 34.5518827060017,10.0634736436771,0 34.5519488843719,10.0634819451592,0 </coordinates></LinearRing></outerBoundaryIs></Polygon></Placemark><Placemark><name /><description>BUILDING</description><styleUrl>#BUILDING_2</styleUrl><Polygon><outerBoundaryIs><LinearRing><coordinates>34.5518704979069,10.0635077301222,0 34.5518428684656,10.0637242949422,0 34.5519165397633,10.0637347140331,0 34.5519473245663,10.0635217229484,0 34.5518704979069,10.0635077301222,0 </coordinates></LinearRing></outerBoundaryIs></Polygon></Placemark><Placemark><name /><description>BUILDING</description><styleUrl>#BUILDING_2</styleUrl><Polygon><outerBoundaryIs><LinearRing><coordinates>34.5518195203291,10.0637507782812,0 34.5518069105795,10.0638398275651,0 34.5523134592407,10.0639171120461,0 34.5523275097908,10.0638266202252,0 34.5518195203291,10.0637507782812,0 </coordinates></LinearRing></outerBoundaryIs></Polygon></Placemark><Placemark><name /><description>BUILDING</description><styleUrl>#BUILDING_2</styleUrl><Polygon><outerBoundaryIs><LinearRing><coordinates>34.5526208341682,10.0637941038039,0 34.5526043353772,10.0638142161074,0 34.5526056752279,10.0638420193937,0 34.5526190480256,10.0638622907624,0 34.5526456464364,10.0638720337147,0 34.5526730498083,10.0638608411141,0 34.5526883425508,10.0638407344684,0 34.5526879162559,10.0638147207115,0 34.5526709111548,10.0637920749417,0 34.5526440250714,10.0637853233357,0 34.5526208341682,10.0637941038039,0 </coordinates></LinearRing></outerBoundaryIs></Polygon></Placemark><Placemark><name /><description>BUILDING</description><styleUrl>#BUILDING_2</styleUrl><Polygon><outerBoundaryIs><LinearRing><coordinates>34.5525196288037,10.063754928598,0 34.5525665254816,10.0637819195289,0 34.5525976587835,10.0637303404281,0 34.5525477385458,10.0637021675127,0 34.5525196288037,10.063754928598,0 </coordinates></LinearRing></outerBoundaryIs></Polygon></Placemark><Placemark><name /><description>BUILDING</description><styleUrl>#BUILDING_2</styleUrl><Polygon><outerBoundaryIs><LinearRing><coordinates>34.5523643343368,10.0635765942499,0 34.5523116204611,10.0636581772685,0 34.5524408999165,10.0637379487426,0 34.5524911884246,10.0636539856356,0 34.5523643343368,10.0635765942499,0 </coordinates></LinearRing></outerBoundaryIs></Polygon></Placemark><Placemark><name /><description>Mixed</description><styleUrl>#Mixed_30</styleUrl><Polygon><outerBoundaryIs><LinearRing><coordinates>34.5525490963007,10.0626333613858,0 34.5525191453824,10.0626118025495,0 34.5524796512664,10.0626413164204,0 34.5523541441845,10.0627340735311,0 34.5522810982787,10.0627880589876,0 34.5521965060816,10.0630415901749,0 34.5521188065715,10.0634510226708,0 34.5525281559221,10.0635791905185,0 34.5525357222447,10.0634888077899,0 34.5525674080568,10.063110297669,0 34.552571292652,10.0630639006083,0 34.552575365377,10.0630152531613,0 34.552604088349,10.0626721359923,0 34.5526028698244,10.0626712475152,0 34.5525494835107,10.0626336344276,0 34.5525490963007,10.0626333613858,0 </coordinates></LinearRing></outerBoundaryIs></Polygon></Placemark><Placemark><name /><description>Fence</description><styleUrl>#Fence_170</styleUrl><Polygon><outerBoundaryIs><LinearRing><coordinates>34.5518549288672,10.0621242367523,0 34.5518008048746,10.0620864759854,0 34.5516458758054,10.0622223889837,0 34.5516383505714,10.0622274341258,0 34.5516309484878,10.0622311396563,0 34.5515630181653,10.0622601647366,0 34.5515527903596,10.0622636140833,0 34.55154214237,10.0622654252871,0 34.5515101214974,10.062268318619,0 34.5515113637048,10.0622972878233,0 34.551511424264,10.0622998444521,0 34.5515114121109,10.062301502705,0 34.5515051989153,10.0626136280002,0 34.5515023255525,10.0627644631614,0 34.5514957509792,10.0631096094,0 34.5514882611293,10.0634336825759,0 34.5514855837709,10.0635495165849,0 34.5514781012066,10.0638791176434,0 34.5514741289949,10.064054112095,0 34.551474078692,10.0640556141103,0 34.5514649531206,10.0642579848246,0 34.5514631756898,10.0642934662545,0 34.5516083761612,10.064349201809,0 34.5517762910503,10.0644812641425,0 34.5517999320887,10.0644998563036,0 34.5518314747031,10.0645247602736,0 34.5519931650088,10.0646524186671,0 34.552063036769,10.0647100101107,0 34.552117048916,10.0646440545189,0 34.552206422078,10.0645232649827,0 34.5522731165204,10.0644331264653,0 34.5522741781168,10.0644317200644,0 34.5524622125021,10.064187683274,0 34.5526879986069,10.0639015884912,0 34.5526880176526,10.0639015648942,0 34.5527559853324,10.0638138877389,0 34.5525216554457,10.0636568379361,0 34.5525240849383,10.0636278207786,0 34.5525252327689,10.0636141049937,0 34.5525281559221,10.0635791905185,0 34.5521188065715,10.0634510226708,0 34.5521965060816,10.0630415901749,0 34.5522810982787,10.0627880589876,0 34.5523541441845,10.0627340735311,0 34.5524796512664,10.0626413164204,0 34.5525191453824,10.0626118025495,0 34.5523270575453,10.0624735402878,0 34.5520714225438,10.0622858527534,0 34.5518549288672,10.0621242367523,0 </coordinates></LinearRing></outerBoundaryIs></Polygon></Placemark></Folder><Folder><name>Hatch Fill Features</name></Folder></Document></kml>